<?xml version="1.0" encoding="UTF-8"?>
<gpx xmlns="http://www.topografix.com/GPX/1/1" xmlns:ns2="http://www.garmin.com/xmlschemas/GpxExtensions/v3" xmlns:ns3="http://www.garmin.com/xmlschemas/TrackPointExtension/v1" xmlns:xsi="http://www.w3.org/2001/XMLSchema-instance" xsi:schemaLocation="http://www.topografix.com/GPX/1/1 http://www.topografix.com/GPX/11.xsd" version="1.1" creator="Garmin Connect">
  <metadata>
    <link href="connect.garmin.com">
      <text>Garmin Connect</text>
    </link>
    <time>2024-06-02T07:15:47Z</time>
  </metadata>
  <trk>
    <name>Gugulan MTB 52km</name>
    <type>mountain_biking</type>
    <trkseg>
      <trkpt lat="45.409759" lon="22.207558">
        <ele>212.2</ele>
      </trkpt>
      <trkpt lat="45.409797" lon="22.207611">
        <ele>208.4</ele>
      </trkpt>
      <trkpt lat="45.409698" lon="22.208596">
        <ele>208.4</ele>
      </trkpt>
      <trkpt lat="45.40936" lon="22.209006">
        <ele>210.8</ele>
      </trkpt>
      <trkpt lat="45.409019" lon="22.210844">
        <ele>211.0</ele>
      </trkpt>
      <trkpt lat="45.408916" lon="22.211184">
        <ele>211.0</ele>
      </trkpt>
      <trkpt lat="45.408761" lon="22.211182">
        <ele>211.2</ele>
      </trkpt>
      <trkpt lat="45.408092" lon="22.210948">
        <ele>213.0</ele>
      </trkpt>
      <trkpt lat="45.407644" lon="22.210673">
        <ele>212.4</ele>
      </trkpt>
      <trkpt lat="45.407573" lon="22.210698">
        <ele>212.0</ele>
      </trkpt>
      <trkpt lat="45.40742" lon="22.21097">
        <ele>211.6</ele>
      </trkpt>
      <trkpt lat="45.407176" lon="22.211716">
        <ele>211.0</ele>
      </trkpt>
      <trkpt lat="45.406783" lon="22.2122">
        <ele>209.6</ele>
      </trkpt>
      <trkpt lat="45.406093" lon="22.213507">
        <ele>209.4</ele>
      </trkpt>
      <trkpt lat="45.405669" lon="22.213752">
        <ele>209.0</ele>
      </trkpt>
      <trkpt lat="45.405482" lon="22.213923">
        <ele>209.0</ele>
      </trkpt>
      <trkpt lat="45.404797" lon="22.213902">
        <ele>209.8</ele>
      </trkpt>
      <trkpt lat="45.404314" lon="22.214062">
        <ele>210.0</ele>
      </trkpt>
      <trkpt lat="45.403761" lon="22.214487">
        <ele>210.2</ele>
      </trkpt>
      <trkpt lat="45.403653" lon="22.214656">
        <ele>210.4</ele>
      </trkpt>
      <trkpt lat="45.403056" lon="22.215211">
        <ele>210.8</ele>
      </trkpt>
      <trkpt lat="45.402892" lon="22.215458">
        <ele>210.6</ele>
      </trkpt>
      <trkpt lat="45.401955" lon="22.215827">
        <ele>210.8</ele>
      </trkpt>
      <trkpt lat="45.401531" lon="22.21622">
        <ele>212.2</ele>
      </trkpt>
      <trkpt lat="45.401359" lon="22.216521">
        <ele>211.8</ele>
      </trkpt>
      <trkpt lat="45.401161" lon="22.21674">
        <ele>211.6</ele>
      </trkpt>
      <trkpt lat="45.400658" lon="22.216876">
        <ele>211.4</ele>
      </trkpt>
      <trkpt lat="45.40003" lon="22.21739">
        <ele>212.2</ele>
      </trkpt>
      <trkpt lat="45.39903" lon="22.217999">
        <ele>213.0</ele>
      </trkpt>
      <trkpt lat="45.398823" lon="22.218223">
        <ele>213.0</ele>
      </trkpt>
      <trkpt lat="45.398319" lon="22.218318">
        <ele>213.6</ele>
      </trkpt>
      <trkpt lat="45.397738" lon="22.218736">
        <ele>213.8</ele>
      </trkpt>
      <trkpt lat="45.397221" lon="22.219343">
        <ele>214.6</ele>
      </trkpt>
      <trkpt lat="45.396639" lon="22.219796">
        <ele>215.0</ele>
      </trkpt>
      <trkpt lat="45.396306" lon="22.220331">
        <ele>215.0</ele>
      </trkpt>
      <trkpt lat="45.395677" lon="22.220932">
        <ele>215.4</ele>
      </trkpt>
      <trkpt lat="45.39544" lon="22.221051">
        <ele>215.2</ele>
      </trkpt>
      <trkpt lat="45.395223" lon="22.221064">
        <ele>215.0</ele>
      </trkpt>
      <trkpt lat="45.394992" lon="22.221266">
        <ele>215.0</ele>
      </trkpt>
      <trkpt lat="45.394508" lon="22.221311">
        <ele>215.4</ele>
      </trkpt>
      <trkpt lat="45.394385" lon="22.221453">
        <ele>215.8</ele>
      </trkpt>
      <trkpt lat="45.3942" lon="22.221818">
        <ele>216.0</ele>
      </trkpt>
      <trkpt lat="45.394003" lon="22.221936">
        <ele>215.8</ele>
      </trkpt>
      <trkpt lat="45.393423" lon="22.222021">
        <ele>216.0</ele>
      </trkpt>
      <trkpt lat="45.393292" lon="22.221965">
        <ele>216.0</ele>
      </trkpt>
      <trkpt lat="45.393117" lon="22.221749">
        <ele>216.0</ele>
      </trkpt>
      <trkpt lat="45.392934" lon="22.221785">
        <ele>216.0</ele>
      </trkpt>
      <trkpt lat="45.392674" lon="22.221923">
        <ele>216.4</ele>
      </trkpt>
      <trkpt lat="45.392314" lon="22.22222">
        <ele>216.2</ele>
      </trkpt>
      <trkpt lat="45.391732" lon="22.222425">
        <ele>217.0</ele>
      </trkpt>
      <trkpt lat="45.39133" lon="22.222355">
        <ele>216.4</ele>
      </trkpt>
      <trkpt lat="45.390526" lon="22.22245">
        <ele>217.2</ele>
      </trkpt>
      <trkpt lat="45.390352" lon="22.222646">
        <ele>217.2</ele>
      </trkpt>
      <trkpt lat="45.38989" lon="22.222983">
        <ele>217.6</ele>
      </trkpt>
      <trkpt lat="45.389405" lon="22.223157">
        <ele>217.4</ele>
      </trkpt>
      <trkpt lat="45.38929" lon="22.223148">
        <ele>217.4</ele>
      </trkpt>
      <trkpt lat="45.389032" lon="22.222958">
        <ele>217.2</ele>
      </trkpt>
      <trkpt lat="45.3885" lon="22.222422">
        <ele>217.6</ele>
      </trkpt>
      <trkpt lat="45.38772" lon="22.222184">
        <ele>217.8</ele>
      </trkpt>
      <trkpt lat="45.38742" lon="22.22201">
        <ele>218.0</ele>
      </trkpt>
      <trkpt lat="45.38712" lon="22.22159">
        <ele>218.2</ele>
      </trkpt>
      <trkpt lat="45.387074" lon="22.22143">
        <ele>218.2</ele>
      </trkpt>
      <trkpt lat="45.387179" lon="22.220892">
        <ele>218.4</ele>
      </trkpt>
      <trkpt lat="45.38681" lon="22.220121">
        <ele>218.6</ele>
      </trkpt>
      <trkpt lat="45.386729" lon="22.219484">
        <ele>218.6</ele>
      </trkpt>
      <trkpt lat="45.386496" lon="22.218884">
        <ele>218.4</ele>
      </trkpt>
      <trkpt lat="45.386493" lon="22.218778">
        <ele>218.4</ele>
      </trkpt>
      <trkpt lat="45.386591" lon="22.218556">
        <ele>218.6</ele>
      </trkpt>
      <trkpt lat="45.386585" lon="22.218268">
        <ele>218.8</ele>
      </trkpt>
      <trkpt lat="45.386222" lon="22.217546">
        <ele>219.0</ele>
      </trkpt>
      <trkpt lat="45.38607" lon="22.217034">
        <ele>219.6</ele>
      </trkpt>
      <trkpt lat="45.385987" lon="22.216938">
        <ele>219.6</ele>
      </trkpt>
      <trkpt lat="45.385227" lon="22.216914">
        <ele>219.8</ele>
      </trkpt>
      <trkpt lat="45.384913" lon="22.216731">
        <ele>220.0</ele>
      </trkpt>
      <trkpt lat="45.384409" lon="22.217037">
        <ele>220.6</ele>
      </trkpt>
      <trkpt lat="45.383867" lon="22.217084">
        <ele>221.6</ele>
      </trkpt>
      <trkpt lat="45.383782" lon="22.21717">
        <ele>221.8</ele>
      </trkpt>
      <trkpt lat="45.383546" lon="22.217748">
        <ele>222.8</ele>
      </trkpt>
      <trkpt lat="45.383341" lon="22.217826">
        <ele>222.8</ele>
      </trkpt>
      <trkpt lat="45.382795" lon="22.217822">
        <ele>224.0</ele>
      </trkpt>
      <trkpt lat="45.382722" lon="22.217877">
        <ele>224.0</ele>
      </trkpt>
      <trkpt lat="45.382659" lon="22.218037">
        <ele>224.0</ele>
      </trkpt>
      <trkpt lat="45.382447" lon="22.218202">
        <ele>224.0</ele>
      </trkpt>
      <trkpt lat="45.38207" lon="22.218077">
        <ele>224.8</ele>
      </trkpt>
      <trkpt lat="45.381331" lon="22.217465">
        <ele>227.4</ele>
      </trkpt>
      <trkpt lat="45.38099" lon="22.217449">
        <ele>228.4</ele>
      </trkpt>
      <trkpt lat="45.380528" lon="22.217169">
        <ele>228.4</ele>
      </trkpt>
      <trkpt lat="45.380301" lon="22.217165">
        <ele>228.8</ele>
      </trkpt>
      <trkpt lat="45.379981" lon="22.217368">
        <ele>229.0</ele>
      </trkpt>
      <trkpt lat="45.379437" lon="22.217319">
        <ele>232.8</ele>
      </trkpt>
      <trkpt lat="45.379234" lon="22.217374">
        <ele>234.2</ele>
      </trkpt>
      <trkpt lat="45.378735" lon="22.217733">
        <ele>236.0</ele>
      </trkpt>
      <trkpt lat="45.378506" lon="22.218315">
        <ele>234.6</ele>
      </trkpt>
      <trkpt lat="45.378188" lon="22.218662">
        <ele>238.2</ele>
      </trkpt>
      <trkpt lat="45.378117" lon="22.21885">
        <ele>238.2</ele>
      </trkpt>
      <trkpt lat="45.378166" lon="22.219404">
        <ele>237.6</ele>
      </trkpt>
      <trkpt lat="45.378158" lon="22.220066">
        <ele>234.8</ele>
      </trkpt>
      <trkpt lat="45.378075" lon="22.220426">
        <ele>232.2</ele>
      </trkpt>
      <trkpt lat="45.377594" lon="22.221334">
        <ele>229.0</ele>
      </trkpt>
      <trkpt lat="45.376393" lon="22.222715">
        <ele>228.0</ele>
      </trkpt>
      <trkpt lat="45.376151" lon="22.222846">
        <ele>228.6</ele>
      </trkpt>
      <trkpt lat="45.375561" lon="22.222927">
        <ele>230.2</ele>
      </trkpt>
      <trkpt lat="45.374314" lon="22.223002">
        <ele>228.8</ele>
      </trkpt>
      <trkpt lat="45.373695" lon="22.222918">
        <ele>226.4</ele>
      </trkpt>
      <trkpt lat="45.373263" lon="22.222997">
        <ele>225.6</ele>
      </trkpt>
      <trkpt lat="45.372531" lon="22.22359">
        <ele>224.4</ele>
      </trkpt>
      <trkpt lat="45.372133" lon="22.223827">
        <ele>224.2</ele>
      </trkpt>
      <trkpt lat="45.371646" lon="22.224402">
        <ele>224.4</ele>
      </trkpt>
      <trkpt lat="45.370928" lon="22.22493">
        <ele>224.6</ele>
      </trkpt>
      <trkpt lat="45.370378" lon="22.225488">
        <ele>225.4</ele>
      </trkpt>
      <trkpt lat="45.370347" lon="22.22456">
        <ele>228.6</ele>
      </trkpt>
      <trkpt lat="45.370412" lon="22.223977">
        <ele>231.0</ele>
      </trkpt>
      <trkpt lat="45.37047" lon="22.223797">
        <ele>232.0</ele>
      </trkpt>
      <trkpt lat="45.370931" lon="22.223234">
        <ele>241.2</ele>
      </trkpt>
      <trkpt lat="45.371516" lon="22.22287">
        <ele>243.8</ele>
      </trkpt>
      <trkpt lat="45.371626" lon="22.222691">
        <ele>243.6</ele>
      </trkpt>
      <trkpt lat="45.371729" lon="22.222326">
        <ele>245.0</ele>
      </trkpt>
      <trkpt lat="45.371891" lon="22.222001">
        <ele>247.6</ele>
      </trkpt>
      <trkpt lat="45.372032" lon="22.221919">
        <ele>248.6</ele>
      </trkpt>
      <trkpt lat="45.372402" lon="22.221883">
        <ele>252.0</ele>
      </trkpt>
      <trkpt lat="45.372829" lon="22.221648">
        <ele>258.6</ele>
      </trkpt>
      <trkpt lat="45.373363" lon="22.221258">
        <ele>263.6</ele>
      </trkpt>
      <trkpt lat="45.373549" lon="22.220861">
        <ele>268.8</ele>
      </trkpt>
      <trkpt lat="45.373503" lon="22.220613">
        <ele>273.8</ele>
      </trkpt>
      <trkpt lat="45.373435" lon="22.220513">
        <ele>277.0</ele>
      </trkpt>
      <trkpt lat="45.372904" lon="22.220201">
        <ele>282.4</ele>
      </trkpt>
      <trkpt lat="45.372768" lon="22.220065">
        <ele>284.6</ele>
      </trkpt>
      <trkpt lat="45.372244" lon="22.219058">
        <ele>296.2</ele>
      </trkpt>
      <trkpt lat="45.372183" lon="22.218742">
        <ele>299.4</ele>
      </trkpt>
      <trkpt lat="45.371852" lon="22.218214">
        <ele>303.8</ele>
      </trkpt>
      <trkpt lat="45.371332" lon="22.217811">
        <ele>310.8</ele>
      </trkpt>
      <trkpt lat="45.370957" lon="22.217308">
        <ele>318.0</ele>
      </trkpt>
      <trkpt lat="45.370754" lon="22.217255">
        <ele>320.2</ele>
      </trkpt>
      <trkpt lat="45.370571" lon="22.217127">
        <ele>322.0</ele>
      </trkpt>
      <trkpt lat="45.370327" lon="22.216724">
        <ele>326.2</ele>
      </trkpt>
      <trkpt lat="45.370258" lon="22.216267">
        <ele>329.6</ele>
      </trkpt>
      <trkpt lat="45.370441" lon="22.214818">
        <ele>333.8</ele>
      </trkpt>
      <trkpt lat="45.370594" lon="22.21429">
        <ele>335.8</ele>
      </trkpt>
      <trkpt lat="45.370863" lon="22.213717">
        <ele>337.4</ele>
      </trkpt>
      <trkpt lat="45.371023" lon="22.212953">
        <ele>341.4</ele>
      </trkpt>
      <trkpt lat="45.371137" lon="22.212643">
        <ele>342.8</ele>
      </trkpt>
      <trkpt lat="45.371134" lon="22.212434">
        <ele>343.2</ele>
      </trkpt>
      <trkpt lat="45.371264" lon="22.211682">
        <ele>342.2</ele>
      </trkpt>
      <trkpt lat="45.37155" lon="22.211028">
        <ele>340.6</ele>
      </trkpt>
      <trkpt lat="45.371648" lon="22.210495">
        <ele>338.8</ele>
      </trkpt>
      <trkpt lat="45.371766" lon="22.210249">
        <ele>338.0</ele>
      </trkpt>
      <trkpt lat="45.371727" lon="22.20907">
        <ele>333.4</ele>
      </trkpt>
      <trkpt lat="45.371528" lon="22.208265">
        <ele>333.6</ele>
      </trkpt>
      <trkpt lat="45.371615" lon="22.207802">
        <ele>338.0</ele>
      </trkpt>
      <trkpt lat="45.371771" lon="22.207434">
        <ele>341.4</ele>
      </trkpt>
      <trkpt lat="45.372079" lon="22.2073">
        <ele>344.6</ele>
      </trkpt>
      <trkpt lat="45.372914" lon="22.206495">
        <ele>343.4</ele>
      </trkpt>
      <trkpt lat="45.373011" lon="22.206244">
        <ele>342.6</ele>
      </trkpt>
      <trkpt lat="45.373072" lon="22.205795">
        <ele>341.2</ele>
      </trkpt>
      <trkpt lat="45.373199" lon="22.20544">
        <ele>341.6</ele>
      </trkpt>
      <trkpt lat="45.373169" lon="22.205186">
        <ele>342.6</ele>
      </trkpt>
      <trkpt lat="45.373019" lon="22.204906">
        <ele>343.8</ele>
      </trkpt>
      <trkpt lat="45.372954" lon="22.204316">
        <ele>344.4</ele>
      </trkpt>
      <trkpt lat="45.372945" lon="22.203253">
        <ele>341.6</ele>
      </trkpt>
      <trkpt lat="45.373036" lon="22.202772">
        <ele>339.6</ele>
      </trkpt>
      <trkpt lat="45.372973" lon="22.202396">
        <ele>338.0</ele>
      </trkpt>
      <trkpt lat="45.372506" lon="22.201936">
        <ele>338.6</ele>
      </trkpt>
      <trkpt lat="45.372253" lon="22.201379">
        <ele>340.6</ele>
      </trkpt>
      <trkpt lat="45.372108" lon="22.201191">
        <ele>342.4</ele>
      </trkpt>
      <trkpt lat="45.371889" lon="22.201054">
        <ele>345.4</ele>
      </trkpt>
      <trkpt lat="45.371529" lon="22.200993">
        <ele>348.0</ele>
      </trkpt>
      <trkpt lat="45.37081" lon="22.200441">
        <ele>350.2</ele>
      </trkpt>
      <trkpt lat="45.370347" lon="22.200579">
        <ele>360.6</ele>
      </trkpt>
      <trkpt lat="45.370459" lon="22.200143">
        <ele>361.0</ele>
      </trkpt>
      <trkpt lat="45.370191" lon="22.200532">
        <ele>361.2</ele>
      </trkpt>
      <trkpt lat="45.370101" lon="22.20041">
        <ele>361.6</ele>
      </trkpt>
      <trkpt lat="45.370113" lon="22.200314">
        <ele>362.0</ele>
      </trkpt>
      <trkpt lat="45.370018" lon="22.200094">
        <ele>363.2</ele>
      </trkpt>
      <trkpt lat="45.369869" lon="22.199859">
        <ele>364.6</ele>
      </trkpt>
      <trkpt lat="45.36968" lon="22.19974">
        <ele>366.0</ele>
      </trkpt>
      <trkpt lat="45.3695" lon="22.199404">
        <ele>368.0</ele>
      </trkpt>
      <trkpt lat="45.369184" lon="22.198983">
        <ele>373.8</ele>
      </trkpt>
      <trkpt lat="45.369166" lon="22.198408">
        <ele>378.0</ele>
      </trkpt>
      <trkpt lat="45.369331" lon="22.198107">
        <ele>378.2</ele>
      </trkpt>
      <trkpt lat="45.36936" lon="22.197927">
        <ele>378.4</ele>
      </trkpt>
      <trkpt lat="45.369269" lon="22.197343">
        <ele>378.0</ele>
      </trkpt>
      <trkpt lat="45.369288" lon="22.19605">
        <ele>373.2</ele>
      </trkpt>
      <trkpt lat="45.369338" lon="22.195604">
        <ele>370.4</ele>
      </trkpt>
      <trkpt lat="45.369485" lon="22.195169">
        <ele>367.4</ele>
      </trkpt>
      <trkpt lat="45.36955" lon="22.194708">
        <ele>364.4</ele>
      </trkpt>
      <trkpt lat="45.369465" lon="22.194152">
        <ele>360.8</ele>
      </trkpt>
      <trkpt lat="45.369224" lon="22.193866">
        <ele>358.0</ele>
      </trkpt>
      <trkpt lat="45.368776" lon="22.193712">
        <ele>359.2</ele>
      </trkpt>
      <trkpt lat="45.368521" lon="22.193786">
        <ele>360.0</ele>
      </trkpt>
      <trkpt lat="45.368179" lon="22.194079">
        <ele>361.8</ele>
      </trkpt>
      <trkpt lat="45.367739" lon="22.194223">
        <ele>365.6</ele>
      </trkpt>
      <trkpt lat="45.367555" lon="22.194213">
        <ele>368.0</ele>
      </trkpt>
      <trkpt lat="45.366795" lon="22.193681">
        <ele>372.6</ele>
      </trkpt>
      <trkpt lat="45.366412" lon="22.19331">
        <ele>374.4</ele>
      </trkpt>
      <trkpt lat="45.365934" lon="22.193059">
        <ele>376.8</ele>
      </trkpt>
      <trkpt lat="45.365684" lon="22.193038">
        <ele>379.0</ele>
      </trkpt>
      <trkpt lat="45.365039" lon="22.193324">
        <ele>384.0</ele>
      </trkpt>
      <trkpt lat="45.364853" lon="22.193255">
        <ele>384.2</ele>
      </trkpt>
      <trkpt lat="45.364457" lon="22.192627">
        <ele>374.4</ele>
      </trkpt>
      <trkpt lat="45.364164" lon="22.192356">
        <ele>369.6</ele>
      </trkpt>
      <trkpt lat="45.364038" lon="22.191211">
        <ele>358.6</ele>
      </trkpt>
      <trkpt lat="45.363845" lon="22.190665">
        <ele>352.2</ele>
      </trkpt>
      <trkpt lat="45.363676" lon="22.190604">
        <ele>351.4</ele>
      </trkpt>
      <trkpt lat="45.363439" lon="22.190643">
        <ele>355.6</ele>
      </trkpt>
      <trkpt lat="45.363281" lon="22.190543">
        <ele>362.0</ele>
      </trkpt>
      <trkpt lat="45.361712" lon="22.189064">
        <ele>393.4</ele>
      </trkpt>
      <trkpt lat="45.360888" lon="22.188962">
        <ele>393.8</ele>
      </trkpt>
      <trkpt lat="45.360371" lon="22.188592">
        <ele>393.4</ele>
      </trkpt>
      <trkpt lat="45.359602" lon="22.187666">
        <ele>391.4</ele>
      </trkpt>
      <trkpt lat="45.358321" lon="22.185582">
        <ele>369.4</ele>
      </trkpt>
      <trkpt lat="45.357901" lon="22.185134">
        <ele>360.8</ele>
      </trkpt>
      <trkpt lat="45.3577" lon="22.185087">
        <ele>356.0</ele>
      </trkpt>
      <trkpt lat="45.357626" lon="22.184811">
        <ele>349.4</ele>
      </trkpt>
      <trkpt lat="45.357081" lon="22.18497">
        <ele>341.4</ele>
      </trkpt>
      <trkpt lat="45.356855" lon="22.185224">
        <ele>336.6</ele>
      </trkpt>
      <trkpt lat="45.356788" lon="22.185219">
        <ele>334.4</ele>
      </trkpt>
      <trkpt lat="45.356778" lon="22.184862">
        <ele>329.4</ele>
      </trkpt>
      <trkpt lat="45.356869" lon="22.184577">
        <ele>322.8</ele>
      </trkpt>
      <trkpt lat="45.356637" lon="22.184278">
        <ele>316.8</ele>
      </trkpt>
      <trkpt lat="45.356619" lon="22.184047">
        <ele>314.2</ele>
      </trkpt>
      <trkpt lat="45.356671" lon="22.183514">
        <ele>316.0</ele>
      </trkpt>
      <trkpt lat="45.356629" lon="22.183321">
        <ele>316.0</ele>
      </trkpt>
      <trkpt lat="45.356408" lon="22.183048">
        <ele>315.2</ele>
      </trkpt>
      <trkpt lat="45.355468" lon="22.182452">
        <ele>313.8</ele>
      </trkpt>
      <trkpt lat="45.355173" lon="22.181265">
        <ele>317.0</ele>
      </trkpt>
      <trkpt lat="45.35467" lon="22.180273">
        <ele>318.6</ele>
      </trkpt>
      <trkpt lat="45.3545" lon="22.179372">
        <ele>320.0</ele>
      </trkpt>
      <trkpt lat="45.354258" lon="22.17838">
        <ele>320.8</ele>
      </trkpt>
      <trkpt lat="45.354077" lon="22.177838">
        <ele>321.8</ele>
      </trkpt>
      <trkpt lat="45.353263" lon="22.175783">
        <ele>325.6</ele>
      </trkpt>
      <trkpt lat="45.353238" lon="22.175808">
        <ele>325.8</ele>
      </trkpt>
      <trkpt lat="45.353285" lon="22.176023">
        <ele>326.0</ele>
      </trkpt>
      <trkpt lat="45.353156" lon="22.176131">
        <ele>326.2</ele>
      </trkpt>
      <trkpt lat="45.353272" lon="22.176021">
        <ele>326.0</ele>
      </trkpt>
      <trkpt lat="45.353281" lon="22.17591">
        <ele>325.8</ele>
      </trkpt>
      <trkpt lat="45.352579" lon="22.173966">
        <ele>327.6</ele>
      </trkpt>
      <trkpt lat="45.352605" lon="22.173587">
        <ele>328.6</ele>
      </trkpt>
      <trkpt lat="45.352547" lon="22.172594">
        <ele>327.2</ele>
      </trkpt>
      <trkpt lat="45.352344" lon="22.171029">
        <ele>328.8</ele>
      </trkpt>
      <trkpt lat="45.352066" lon="22.170623">
        <ele>329.8</ele>
      </trkpt>
      <trkpt lat="45.351527" lon="22.170443">
        <ele>331.2</ele>
      </trkpt>
      <trkpt lat="45.351336" lon="22.170289">
        <ele>331.0</ele>
      </trkpt>
      <trkpt lat="45.350766" lon="22.169405">
        <ele>330.4</ele>
      </trkpt>
      <trkpt lat="45.350656" lon="22.169163">
        <ele>330.8</ele>
      </trkpt>
      <trkpt lat="45.350609" lon="22.169013">
        <ele>331.0</ele>
      </trkpt>
      <trkpt lat="45.350567" lon="22.168462">
        <ele>331.8</ele>
      </trkpt>
      <trkpt lat="45.350355" lon="22.167791">
        <ele>333.6</ele>
      </trkpt>
      <trkpt lat="45.350261" lon="22.167152">
        <ele>335.2</ele>
      </trkpt>
      <trkpt lat="45.349867" lon="22.166276">
        <ele>335.4</ele>
      </trkpt>
      <trkpt lat="45.349532" lon="22.164889">
        <ele>336.6</ele>
      </trkpt>
      <trkpt lat="45.349234" lon="22.164173">
        <ele>339.6</ele>
      </trkpt>
      <trkpt lat="45.348803" lon="22.162207">
        <ele>344.2</ele>
      </trkpt>
      <trkpt lat="45.347283" lon="22.156997">
        <ele>352.0</ele>
      </trkpt>
      <trkpt lat="45.347081" lon="22.156428">
        <ele>354.8</ele>
      </trkpt>
      <trkpt lat="45.346706" lon="22.155752">
        <ele>356.8</ele>
      </trkpt>
      <trkpt lat="45.346043" lon="22.154984">
        <ele>356.2</ele>
      </trkpt>
      <trkpt lat="45.345577" lon="22.154631">
        <ele>356.2</ele>
      </trkpt>
      <trkpt lat="45.344697" lon="22.154184">
        <ele>355.8</ele>
      </trkpt>
      <trkpt lat="45.344125" lon="22.153798">
        <ele>356.6</ele>
      </trkpt>
      <trkpt lat="45.343957" lon="22.15351">
        <ele>357.2</ele>
      </trkpt>
      <trkpt lat="45.343719" lon="22.152673">
        <ele>358.2</ele>
      </trkpt>
      <trkpt lat="45.342976" lon="22.151688">
        <ele>360.0</ele>
      </trkpt>
      <trkpt lat="45.342736" lon="22.151284">
        <ele>361.4</ele>
      </trkpt>
      <trkpt lat="45.342695" lon="22.151057">
        <ele>362.0</ele>
      </trkpt>
      <trkpt lat="45.342798" lon="22.150421">
        <ele>363.6</ele>
      </trkpt>
      <trkpt lat="45.343061" lon="22.149809">
        <ele>365.0</ele>
      </trkpt>
      <trkpt lat="45.343091" lon="22.149534">
        <ele>365.4</ele>
      </trkpt>
      <trkpt lat="45.342927" lon="22.148467">
        <ele>367.2</ele>
      </trkpt>
      <trkpt lat="45.342965" lon="22.147755">
        <ele>368.2</ele>
      </trkpt>
      <trkpt lat="45.342938" lon="22.147233">
        <ele>368.4</ele>
      </trkpt>
      <trkpt lat="45.342716" lon="22.146554">
        <ele>369.6</ele>
      </trkpt>
      <trkpt lat="45.342447" lon="22.146183">
        <ele>370.0</ele>
      </trkpt>
      <trkpt lat="45.342291" lon="22.145699">
        <ele>370.4</ele>
      </trkpt>
      <trkpt lat="45.342276" lon="22.144964">
        <ele>372.6</ele>
      </trkpt>
      <trkpt lat="45.342539" lon="22.144241">
        <ele>373.8</ele>
      </trkpt>
      <trkpt lat="45.342504" lon="22.143927">
        <ele>374.4</ele>
      </trkpt>
      <trkpt lat="45.342567" lon="22.143318">
        <ele>375.2</ele>
      </trkpt>
      <trkpt lat="45.34248" lon="22.142742">
        <ele>376.0</ele>
      </trkpt>
      <trkpt lat="45.342103" lon="22.141326">
        <ele>379.6</ele>
      </trkpt>
      <trkpt lat="45.342016" lon="22.141212">
        <ele>380.0</ele>
      </trkpt>
      <trkpt lat="45.341776" lon="22.141176">
        <ele>381.4</ele>
      </trkpt>
      <trkpt lat="45.34051" lon="22.141173">
        <ele>383.2</ele>
      </trkpt>
      <trkpt lat="45.340105" lon="22.141077">
        <ele>384.0</ele>
      </trkpt>
      <trkpt lat="45.33983" lon="22.140967">
        <ele>384.8</ele>
      </trkpt>
      <trkpt lat="45.33968" lon="22.140842">
        <ele>385.2</ele>
      </trkpt>
      <trkpt lat="45.339454" lon="22.140443">
        <ele>387.8</ele>
      </trkpt>
      <trkpt lat="45.339327" lon="22.140051">
        <ele>389.6</ele>
      </trkpt>
      <trkpt lat="45.33901" lon="22.139362">
        <ele>390.8</ele>
      </trkpt>
      <trkpt lat="45.33886" lon="22.138827">
        <ele>391.8</ele>
      </trkpt>
      <trkpt lat="45.338349" lon="22.13785">
        <ele>395.6</ele>
      </trkpt>
      <trkpt lat="45.33808" lon="22.136894">
        <ele>399.4</ele>
      </trkpt>
      <trkpt lat="45.337868" lon="22.136398">
        <ele>402.2</ele>
      </trkpt>
      <trkpt lat="45.337781" lon="22.136307">
        <ele>402.8</ele>
      </trkpt>
      <trkpt lat="45.337773" lon="22.136204">
        <ele>403.4</ele>
      </trkpt>
      <trkpt lat="45.338235" lon="22.136617">
        <ele>409.6</ele>
      </trkpt>
      <trkpt lat="45.338355" lon="22.136649">
        <ele>411.4</ele>
      </trkpt>
      <trkpt lat="45.338378" lon="22.136317">
        <ele>415.8</ele>
      </trkpt>
      <trkpt lat="45.338255" lon="22.135928">
        <ele>420.2</ele>
      </trkpt>
      <trkpt lat="45.337736" lon="22.135446">
        <ele>429.2</ele>
      </trkpt>
      <trkpt lat="45.337096" lon="22.13471">
        <ele>436.8</ele>
      </trkpt>
      <trkpt lat="45.337008" lon="22.134689">
        <ele>438.2</ele>
      </trkpt>
      <trkpt lat="45.336917" lon="22.134547">
        <ele>439.4</ele>
      </trkpt>
      <trkpt lat="45.33658" lon="22.13432">
        <ele>443.0</ele>
      </trkpt>
      <trkpt lat="45.335537" lon="22.133374">
        <ele>456.0</ele>
      </trkpt>
      <trkpt lat="45.335073" lon="22.132456">
        <ele>464.4</ele>
      </trkpt>
      <trkpt lat="45.334799" lon="22.132071">
        <ele>470.4</ele>
      </trkpt>
      <trkpt lat="45.33445" lon="22.131753">
        <ele>474.2</ele>
      </trkpt>
      <trkpt lat="45.334027" lon="22.130967">
        <ele>482.8</ele>
      </trkpt>
      <trkpt lat="45.333997" lon="22.130797">
        <ele>484.8</ele>
      </trkpt>
      <trkpt lat="45.334045" lon="22.130761">
        <ele>486.2</ele>
      </trkpt>
      <trkpt lat="45.334163" lon="22.130936">
        <ele>488.6</ele>
      </trkpt>
      <trkpt lat="45.334884" lon="22.131254">
        <ele>495.0</ele>
      </trkpt>
      <trkpt lat="45.335661" lon="22.131872">
        <ele>508.0</ele>
      </trkpt>
      <trkpt lat="45.335938" lon="22.131951">
        <ele>509.8</ele>
      </trkpt>
      <trkpt lat="45.336023" lon="22.131937">
        <ele>510.4</ele>
      </trkpt>
      <trkpt lat="45.336105" lon="22.131823">
        <ele>510.8</ele>
      </trkpt>
      <trkpt lat="45.336114" lon="22.131646">
        <ele>511.8</ele>
      </trkpt>
      <trkpt lat="45.335818" lon="22.131387">
        <ele>518.0</ele>
      </trkpt>
      <trkpt lat="45.335583" lon="22.130957">
        <ele>523.2</ele>
      </trkpt>
      <trkpt lat="45.335093" lon="22.129737">
        <ele>537.4</ele>
      </trkpt>
      <trkpt lat="45.334822" lon="22.129183">
        <ele>543.0</ele>
      </trkpt>
      <trkpt lat="45.334812" lon="22.128602">
        <ele>546.8</ele>
      </trkpt>
      <trkpt lat="45.33497" lon="22.127825">
        <ele>552.6</ele>
      </trkpt>
      <trkpt lat="45.334951" lon="22.127638">
        <ele>554.6</ele>
      </trkpt>
      <trkpt lat="45.334778" lon="22.127254">
        <ele>559.6</ele>
      </trkpt>
      <trkpt lat="45.334497" lon="22.127078">
        <ele>562.4</ele>
      </trkpt>
      <trkpt lat="45.33403" lon="22.127176">
        <ele>567.2</ele>
      </trkpt>
      <trkpt lat="45.333855" lon="22.127477">
        <ele>570.6</ele>
      </trkpt>
      <trkpt lat="45.33361" lon="22.12774">
        <ele>574.2</ele>
      </trkpt>
      <trkpt lat="45.333084" lon="22.127965">
        <ele>582.0</ele>
      </trkpt>
      <trkpt lat="45.332491" lon="22.128538">
        <ele>586.6</ele>
      </trkpt>
      <trkpt lat="45.331947" lon="22.128829">
        <ele>593.4</ele>
      </trkpt>
      <trkpt lat="45.33179" lon="22.129046">
        <ele>596.0</ele>
      </trkpt>
      <trkpt lat="45.331763" lon="22.129222">
        <ele>597.6</ele>
      </trkpt>
      <trkpt lat="45.331679" lon="22.129365">
        <ele>598.8</ele>
      </trkpt>
      <trkpt lat="45.331456" lon="22.129368">
        <ele>601.2</ele>
      </trkpt>
      <trkpt lat="45.331275" lon="22.129223">
        <ele>603.8</ele>
      </trkpt>
      <trkpt lat="45.331039" lon="22.128786">
        <ele>609.0</ele>
      </trkpt>
      <trkpt lat="45.330494" lon="22.128172">
        <ele>617.4</ele>
      </trkpt>
      <trkpt lat="45.329816" lon="22.127772">
        <ele>626.4</ele>
      </trkpt>
      <trkpt lat="45.329618" lon="22.127572">
        <ele>629.0</ele>
      </trkpt>
      <trkpt lat="45.329456" lon="22.127299">
        <ele>632.4</ele>
      </trkpt>
      <trkpt lat="45.329326" lon="22.126924">
        <ele>635.6</ele>
      </trkpt>
      <trkpt lat="45.329275" lon="22.126551">
        <ele>638.4</ele>
      </trkpt>
      <trkpt lat="45.329039" lon="22.125597">
        <ele>643.6</ele>
      </trkpt>
      <trkpt lat="45.329098" lon="22.125236">
        <ele>644.6</ele>
      </trkpt>
      <trkpt lat="45.329095" lon="22.124797">
        <ele>646.4</ele>
      </trkpt>
      <trkpt lat="45.329249" lon="22.124143">
        <ele>649.2</ele>
      </trkpt>
      <trkpt lat="45.329228" lon="22.123925">
        <ele>650.8</ele>
      </trkpt>
      <trkpt lat="45.329147" lon="22.123811">
        <ele>651.6</ele>
      </trkpt>
      <trkpt lat="45.328907" lon="22.123676">
        <ele>653.4</ele>
      </trkpt>
      <trkpt lat="45.327952" lon="22.123389">
        <ele>665.4</ele>
      </trkpt>
      <trkpt lat="45.327516" lon="22.122972">
        <ele>672.4</ele>
      </trkpt>
      <trkpt lat="45.32681" lon="22.122435">
        <ele>681.0</ele>
      </trkpt>
      <trkpt lat="45.326277" lon="22.121914">
        <ele>691.4</ele>
      </trkpt>
      <trkpt lat="45.325128" lon="22.121665">
        <ele>696.2</ele>
      </trkpt>
      <trkpt lat="45.324289" lon="22.121306">
        <ele>693.2</ele>
      </trkpt>
      <trkpt lat="45.323737" lon="22.120741">
        <ele>693.2</ele>
      </trkpt>
      <trkpt lat="45.323503" lon="22.1201">
        <ele>693.8</ele>
      </trkpt>
      <trkpt lat="45.323303" lon="22.119789">
        <ele>696.8</ele>
      </trkpt>
      <trkpt lat="45.322995" lon="22.119623">
        <ele>698.8</ele>
      </trkpt>
      <trkpt lat="45.322389" lon="22.11946">
        <ele>701.8</ele>
      </trkpt>
      <trkpt lat="45.32226" lon="22.119368">
        <ele>702.8</ele>
      </trkpt>
      <trkpt lat="45.322091" lon="22.119087">
        <ele>704.0</ele>
      </trkpt>
      <trkpt lat="45.321813" lon="22.118843">
        <ele>705.6</ele>
      </trkpt>
      <trkpt lat="45.320075" lon="22.118493">
        <ele>706.4</ele>
      </trkpt>
      <trkpt lat="45.319609" lon="22.118226">
        <ele>708.0</ele>
      </trkpt>
      <trkpt lat="45.319482" lon="22.11805">
        <ele>709.0</ele>
      </trkpt>
      <trkpt lat="45.319457" lon="22.117904">
        <ele>709.2</ele>
      </trkpt>
      <trkpt lat="45.319654" lon="22.117025">
        <ele>714.2</ele>
      </trkpt>
      <trkpt lat="45.319682" lon="22.116551">
        <ele>717.8</ele>
      </trkpt>
      <trkpt lat="45.319637" lon="22.116239">
        <ele>718.6</ele>
      </trkpt>
      <trkpt lat="45.319438" lon="22.115735">
        <ele>721.0</ele>
      </trkpt>
      <trkpt lat="45.318871" lon="22.115227">
        <ele>728.6</ele>
      </trkpt>
      <trkpt lat="45.318776" lon="22.115198">
        <ele>729.8</ele>
      </trkpt>
      <trkpt lat="45.318601" lon="22.11529">
        <ele>732.6</ele>
      </trkpt>
      <trkpt lat="45.318363" lon="22.115588">
        <ele>736.8</ele>
      </trkpt>
      <trkpt lat="45.31802" lon="22.115893">
        <ele>740.6</ele>
      </trkpt>
      <trkpt lat="45.317654" lon="22.115906">
        <ele>745.4</ele>
      </trkpt>
      <trkpt lat="45.317437" lon="22.115845">
        <ele>748.6</ele>
      </trkpt>
      <trkpt lat="45.317367" lon="22.115732">
        <ele>750.0</ele>
      </trkpt>
      <trkpt lat="45.317401" lon="22.115178">
        <ele>756.2</ele>
      </trkpt>
      <trkpt lat="45.317358" lon="22.114951">
        <ele>759.2</ele>
      </trkpt>
      <trkpt lat="45.317258" lon="22.114838">
        <ele>760.8</ele>
      </trkpt>
      <trkpt lat="45.317106" lon="22.114841">
        <ele>762.8</ele>
      </trkpt>
      <trkpt lat="45.317002" lon="22.114963">
        <ele>764.6</ele>
      </trkpt>
      <trkpt lat="45.316803" lon="22.115011">
        <ele>767.4</ele>
      </trkpt>
      <trkpt lat="45.316022" lon="22.114854">
        <ele>776.8</ele>
      </trkpt>
      <trkpt lat="45.315278" lon="22.114914">
        <ele>787.0</ele>
      </trkpt>
      <trkpt lat="45.315025" lon="22.114853">
        <ele>790.8</ele>
      </trkpt>
      <trkpt lat="45.314835" lon="22.113997">
        <ele>792.4</ele>
      </trkpt>
      <trkpt lat="45.314533" lon="22.113442">
        <ele>788.8</ele>
      </trkpt>
      <trkpt lat="45.314381" lon="22.112216">
        <ele>785.6</ele>
      </trkpt>
      <trkpt lat="45.314197" lon="22.111717">
        <ele>782.8</ele>
      </trkpt>
      <trkpt lat="45.313808" lon="22.110899">
        <ele>779.6</ele>
      </trkpt>
      <trkpt lat="45.312975" lon="22.109649">
        <ele>792.4</ele>
      </trkpt>
      <trkpt lat="45.313026" lon="22.109399">
        <ele>792.8</ele>
      </trkpt>
      <trkpt lat="45.312945" lon="22.109394">
        <ele>793.6</ele>
      </trkpt>
      <trkpt lat="45.312804" lon="22.109183">
        <ele>797.6</ele>
      </trkpt>
      <trkpt lat="45.312438" lon="22.108419">
        <ele>811.8</ele>
      </trkpt>
      <trkpt lat="45.312309" lon="22.108264">
        <ele>815.4</ele>
      </trkpt>
      <trkpt lat="45.312049" lon="22.10766">
        <ele>828.0</ele>
      </trkpt>
      <trkpt lat="45.311579" lon="22.10697">
        <ele>837.6</ele>
      </trkpt>
      <trkpt lat="45.311474" lon="22.106691">
        <ele>840.4</ele>
      </trkpt>
      <trkpt lat="45.31137" lon="22.106193">
        <ele>839.8</ele>
      </trkpt>
      <trkpt lat="45.311029" lon="22.105404">
        <ele>842.0</ele>
      </trkpt>
      <trkpt lat="45.310612" lon="22.104881">
        <ele>846.0</ele>
      </trkpt>
      <trkpt lat="45.310316" lon="22.10459">
        <ele>847.8</ele>
      </trkpt>
      <trkpt lat="45.310097" lon="22.104453">
        <ele>848.6</ele>
      </trkpt>
      <trkpt lat="45.309992" lon="22.104262">
        <ele>849.6</ele>
      </trkpt>
      <trkpt lat="45.309758" lon="22.104129">
        <ele>850.4</ele>
      </trkpt>
      <trkpt lat="45.309743" lon="22.103986">
        <ele>851.0</ele>
      </trkpt>
      <trkpt lat="45.309541" lon="22.103663">
        <ele>853.2</ele>
      </trkpt>
      <trkpt lat="45.309579" lon="22.103238">
        <ele>853.0</ele>
      </trkpt>
      <trkpt lat="45.309558" lon="22.102664">
        <ele>850.6</ele>
      </trkpt>
      <trkpt lat="45.309297" lon="22.101724">
        <ele>856.6</ele>
      </trkpt>
      <trkpt lat="45.309242" lon="22.101456">
        <ele>858.4</ele>
      </trkpt>
      <trkpt lat="45.309265" lon="22.101312">
        <ele>859.0</ele>
      </trkpt>
      <trkpt lat="45.309135" lon="22.101165">
        <ele>859.8</ele>
      </trkpt>
      <trkpt lat="45.308914" lon="22.101072">
        <ele>859.6</ele>
      </trkpt>
      <trkpt lat="45.308738" lon="22.100799">
        <ele>860.8</ele>
      </trkpt>
      <trkpt lat="45.308867" lon="22.100335">
        <ele>864.0</ele>
      </trkpt>
      <trkpt lat="45.308884" lon="22.099893">
        <ele>864.4</ele>
      </trkpt>
      <trkpt lat="45.309233" lon="22.099435">
        <ele>864.6</ele>
      </trkpt>
      <trkpt lat="45.309353" lon="22.099084">
        <ele>864.2</ele>
      </trkpt>
      <trkpt lat="45.309551" lon="22.098986">
        <ele>863.8</ele>
      </trkpt>
      <trkpt lat="45.309842" lon="22.098631">
        <ele>864.6</ele>
      </trkpt>
      <trkpt lat="45.310129" lon="22.097972">
        <ele>867.0</ele>
      </trkpt>
      <trkpt lat="45.310107" lon="22.097876">
        <ele>867.4</ele>
      </trkpt>
      <trkpt lat="45.310205" lon="22.09761">
        <ele>868.4</ele>
      </trkpt>
      <trkpt lat="45.310125" lon="22.09744">
        <ele>870.0</ele>
      </trkpt>
      <trkpt lat="45.310173" lon="22.096909">
        <ele>874.6</ele>
      </trkpt>
      <trkpt lat="45.310125" lon="22.096708">
        <ele>875.2</ele>
      </trkpt>
      <trkpt lat="45.310155" lon="22.096597">
        <ele>875.6</ele>
      </trkpt>
      <trkpt lat="45.310049" lon="22.09621">
        <ele>877.8</ele>
      </trkpt>
      <trkpt lat="45.310091" lon="22.09592">
        <ele>878.6</ele>
      </trkpt>
      <trkpt lat="45.310043" lon="22.095002">
        <ele>875.4</ele>
      </trkpt>
      <trkpt lat="45.31014" lon="22.094108">
        <ele>875.6</ele>
      </trkpt>
      <trkpt lat="45.310428" lon="22.092972">
        <ele>880.0</ele>
      </trkpt>
      <trkpt lat="45.310749" lon="22.092486">
        <ele>880.4</ele>
      </trkpt>
      <trkpt lat="45.311097" lon="22.092124">
        <ele>877.0</ele>
      </trkpt>
      <trkpt lat="45.311342" lon="22.091642">
        <ele>873.0</ele>
      </trkpt>
      <trkpt lat="45.311881" lon="22.090882">
        <ele>871.4</ele>
      </trkpt>
      <trkpt lat="45.312151" lon="22.090262">
        <ele>870.6</ele>
      </trkpt>
      <trkpt lat="45.312382" lon="22.090005">
        <ele>869.4</ele>
      </trkpt>
      <trkpt lat="45.312962" lon="22.089606">
        <ele>870.0</ele>
      </trkpt>
      <trkpt lat="45.313156" lon="22.089374">
        <ele>870.0</ele>
      </trkpt>
      <trkpt lat="45.313736" lon="22.088137">
        <ele>873.4</ele>
      </trkpt>
      <trkpt lat="45.314002" lon="22.0878">
        <ele>874.4</ele>
      </trkpt>
      <trkpt lat="45.314293" lon="22.087293">
        <ele>875.0</ele>
      </trkpt>
      <trkpt lat="45.314636" lon="22.08688">
        <ele>874.2</ele>
      </trkpt>
      <trkpt lat="45.315267" lon="22.0864">
        <ele>871.6</ele>
      </trkpt>
      <trkpt lat="45.315342" lon="22.086248">
        <ele>871.6</ele>
      </trkpt>
      <trkpt lat="45.315889" lon="22.085891">
        <ele>864.6</ele>
      </trkpt>
      <trkpt lat="45.316295" lon="22.085229">
        <ele>860.2</ele>
      </trkpt>
      <trkpt lat="45.316646" lon="22.085061">
        <ele>858.4</ele>
      </trkpt>
      <trkpt lat="45.31676" lon="22.084946">
        <ele>858.0</ele>
      </trkpt>
      <trkpt lat="45.31693" lon="22.084576">
        <ele>855.4</ele>
      </trkpt>
      <trkpt lat="45.317493" lon="22.08399">
        <ele>846.4</ele>
      </trkpt>
      <trkpt lat="45.318149" lon="22.084157">
        <ele>826.4</ele>
      </trkpt>
      <trkpt lat="45.318842" lon="22.084572">
        <ele>812.0</ele>
      </trkpt>
      <trkpt lat="45.319462" lon="22.08461">
        <ele>804.8</ele>
      </trkpt>
      <trkpt lat="45.319891" lon="22.085191">
        <ele>806.2</ele>
      </trkpt>
      <trkpt lat="45.320398" lon="22.085584">
        <ele>803.6</ele>
      </trkpt>
      <trkpt lat="45.320826" lon="22.08614">
        <ele>795.8</ele>
      </trkpt>
      <trkpt lat="45.320969" lon="22.086587">
        <ele>791.8</ele>
      </trkpt>
      <trkpt lat="45.321218" lon="22.086947">
        <ele>787.0</ele>
      </trkpt>
      <trkpt lat="45.321444" lon="22.087952">
        <ele>777.8</ele>
      </trkpt>
      <trkpt lat="45.321925" lon="22.088725">
        <ele>773.0</ele>
      </trkpt>
      <trkpt lat="45.32213" lon="22.088866">
        <ele>772.0</ele>
      </trkpt>
      <trkpt lat="45.322504" lon="22.08931">
        <ele>767.4</ele>
      </trkpt>
      <trkpt lat="45.323159" lon="22.089615">
        <ele>750.4</ele>
      </trkpt>
      <trkpt lat="45.323198" lon="22.089703">
        <ele>750.4</ele>
      </trkpt>
      <trkpt lat="45.323915" lon="22.090353">
        <ele>742.4</ele>
      </trkpt>
      <trkpt lat="45.324423" lon="22.090688">
        <ele>737.0</ele>
      </trkpt>
      <trkpt lat="45.324827" lon="22.091054">
        <ele>727.4</ele>
      </trkpt>
      <trkpt lat="45.325281" lon="22.091311">
        <ele>717.8</ele>
      </trkpt>
      <trkpt lat="45.325568" lon="22.091317">
        <ele>717.0</ele>
      </trkpt>
      <trkpt lat="45.325988" lon="22.091825">
        <ele>711.2</ele>
      </trkpt>
      <trkpt lat="45.32598" lon="22.092145">
        <ele>708.4</ele>
      </trkpt>
      <trkpt lat="45.326268" lon="22.092255">
        <ele>708.4</ele>
      </trkpt>
      <trkpt lat="45.326591" lon="22.092639">
        <ele>709.2</ele>
      </trkpt>
      <trkpt lat="45.326803" lon="22.092772">
        <ele>709.2</ele>
      </trkpt>
      <trkpt lat="45.327379" lon="22.093308">
        <ele>705.6</ele>
      </trkpt>
      <trkpt lat="45.327959" lon="22.093665">
        <ele>701.2</ele>
      </trkpt>
      <trkpt lat="45.328248" lon="22.093982">
        <ele>697.2</ele>
      </trkpt>
      <trkpt lat="45.328793" lon="22.0943">
        <ele>691.8</ele>
      </trkpt>
      <trkpt lat="45.329219" lon="22.094424">
        <ele>693.0</ele>
      </trkpt>
      <trkpt lat="45.329466" lon="22.094397">
        <ele>698.0</ele>
      </trkpt>
      <trkpt lat="45.329859" lon="22.09408">
        <ele>704.6</ele>
      </trkpt>
      <trkpt lat="45.330522" lon="22.094255">
        <ele>707.6</ele>
      </trkpt>
      <trkpt lat="45.331132" lon="22.094127">
        <ele>713.0</ele>
      </trkpt>
      <trkpt lat="45.331317" lon="22.094203">
        <ele>715.2</ele>
      </trkpt>
      <trkpt lat="45.332602" lon="22.095487">
        <ele>711.8</ele>
      </trkpt>
      <trkpt lat="45.333073" lon="22.09578">
        <ele>709.4</ele>
      </trkpt>
      <trkpt lat="45.334287" lon="22.096973">
        <ele>711.4</ele>
      </trkpt>
      <trkpt lat="45.334815" lon="22.097408">
        <ele>718.4</ele>
      </trkpt>
      <trkpt lat="45.335486" lon="22.09772">
        <ele>722.2</ele>
      </trkpt>
      <trkpt lat="45.336092" lon="22.098606">
        <ele>722.0</ele>
      </trkpt>
      <trkpt lat="45.336195" lon="22.098842">
        <ele>721.4</ele>
      </trkpt>
      <trkpt lat="45.336283" lon="22.099207">
        <ele>720.4</ele>
      </trkpt>
      <trkpt lat="45.336353" lon="22.099867">
        <ele>716.4</ele>
      </trkpt>
      <trkpt lat="45.336504" lon="22.100164">
        <ele>712.8</ele>
      </trkpt>
      <trkpt lat="45.337063" lon="22.101647">
        <ele>690.2</ele>
      </trkpt>
      <trkpt lat="45.33714" lon="22.101729">
        <ele>689.0</ele>
      </trkpt>
      <trkpt lat="45.337169" lon="22.101996">
        <ele>688.6</ele>
      </trkpt>
      <trkpt lat="45.336884" lon="22.102098">
        <ele>689.2</ele>
      </trkpt>
      <trkpt lat="45.336503" lon="22.102496">
        <ele>691.8</ele>
      </trkpt>
      <trkpt lat="45.336315" lon="22.102992">
        <ele>695.2</ele>
      </trkpt>
      <trkpt lat="45.336132" lon="22.103681">
        <ele>701.0</ele>
      </trkpt>
      <trkpt lat="45.336093" lon="22.103887">
        <ele>702.6</ele>
      </trkpt>
      <trkpt lat="45.336119" lon="22.104016">
        <ele>704.2</ele>
      </trkpt>
      <trkpt lat="45.336308" lon="22.104496">
        <ele>705.4</ele>
      </trkpt>
      <trkpt lat="45.336953" lon="22.105581">
        <ele>701.4</ele>
      </trkpt>
      <trkpt lat="45.337374" lon="22.106492">
        <ele>693.6</ele>
      </trkpt>
      <trkpt lat="45.337567" lon="22.107105">
        <ele>687.0</ele>
      </trkpt>
      <trkpt lat="45.338117" lon="22.108108">
        <ele>677.6</ele>
      </trkpt>
      <trkpt lat="45.338289" lon="22.108719">
        <ele>674.6</ele>
      </trkpt>
      <trkpt lat="45.338255" lon="22.110454">
        <ele>649.8</ele>
      </trkpt>
      <trkpt lat="45.338171" lon="22.111046">
        <ele>643.8</ele>
      </trkpt>
      <trkpt lat="45.338809" lon="22.111303">
        <ele>633.2</ele>
      </trkpt>
      <trkpt lat="45.338903" lon="22.11205">
        <ele>617.8</ele>
      </trkpt>
      <trkpt lat="45.339002" lon="22.112422">
        <ele>604.4</ele>
      </trkpt>
      <trkpt lat="45.33895" lon="22.112621">
        <ele>600.0</ele>
      </trkpt>
      <trkpt lat="45.338635" lon="22.113198">
        <ele>589.6</ele>
      </trkpt>
      <trkpt lat="45.338491" lon="22.113842">
        <ele>586.2</ele>
      </trkpt>
      <trkpt lat="45.338542" lon="22.114607">
        <ele>584.2</ele>
      </trkpt>
      <trkpt lat="45.338836" lon="22.115641">
        <ele>579.6</ele>
      </trkpt>
      <trkpt lat="45.33879" lon="22.116138">
        <ele>571.8</ele>
      </trkpt>
      <trkpt lat="45.338714" lon="22.116261">
        <ele>566.4</ele>
      </trkpt>
      <trkpt lat="45.338214" lon="22.116228">
        <ele>553.0</ele>
      </trkpt>
      <trkpt lat="45.338072" lon="22.116289">
        <ele>551.2</ele>
      </trkpt>
      <trkpt lat="45.337998" lon="22.116406">
        <ele>547.4</ele>
      </trkpt>
      <trkpt lat="45.338213" lon="22.11678">
        <ele>539.0</ele>
      </trkpt>
      <trkpt lat="45.338222" lon="22.11706">
        <ele>535.4</ele>
      </trkpt>
      <trkpt lat="45.338133" lon="22.117311">
        <ele>529.4</ele>
      </trkpt>
      <trkpt lat="45.337995" lon="22.117399">
        <ele>523.0</ele>
      </trkpt>
      <trkpt lat="45.33788" lon="22.117642">
        <ele>518.0</ele>
      </trkpt>
      <trkpt lat="45.337977" lon="22.117847">
        <ele>511.8</ele>
      </trkpt>
      <trkpt lat="45.33825" lon="22.11795">
        <ele>508.0</ele>
      </trkpt>
      <trkpt lat="45.338313" lon="22.118053">
        <ele>502.4</ele>
      </trkpt>
      <trkpt lat="45.337325" lon="22.118991">
        <ele>490.8</ele>
      </trkpt>
      <trkpt lat="45.336933" lon="22.11921">
        <ele>488.2</ele>
      </trkpt>
      <trkpt lat="45.336706" lon="22.119405">
        <ele>485.6</ele>
      </trkpt>
      <trkpt lat="45.33646" lon="22.119336">
        <ele>482.0</ele>
      </trkpt>
      <trkpt lat="45.3362" lon="22.119602">
        <ele>479.2</ele>
      </trkpt>
      <trkpt lat="45.335231" lon="22.120021">
        <ele>459.2</ele>
      </trkpt>
      <trkpt lat="45.335135" lon="22.120169">
        <ele>454.0</ele>
      </trkpt>
      <trkpt lat="45.335117" lon="22.120534">
        <ele>448.4</ele>
      </trkpt>
      <trkpt lat="45.335281" lon="22.12082">
        <ele>443.4</ele>
      </trkpt>
      <trkpt lat="45.33587" lon="22.121585">
        <ele>435.2</ele>
      </trkpt>
      <trkpt lat="45.336151" lon="22.122142">
        <ele>433.6</ele>
      </trkpt>
      <trkpt lat="45.336203" lon="22.122147">
        <ele>433.6</ele>
      </trkpt>
      <trkpt lat="45.336337" lon="22.122368">
        <ele>432.6</ele>
      </trkpt>
      <trkpt lat="45.336482" lon="22.122411">
        <ele>432.2</ele>
      </trkpt>
      <trkpt lat="45.336679" lon="22.122577">
        <ele>431.6</ele>
      </trkpt>
      <trkpt lat="45.336741" lon="22.123024">
        <ele>431.2</ele>
      </trkpt>
      <trkpt lat="45.337115" lon="22.123494">
        <ele>429.8</ele>
      </trkpt>
      <trkpt lat="45.337208" lon="22.123746">
        <ele>427.8</ele>
      </trkpt>
      <trkpt lat="45.337244" lon="22.124165">
        <ele>427.0</ele>
      </trkpt>
      <trkpt lat="45.337326" lon="22.124466">
        <ele>426.8</ele>
      </trkpt>
      <trkpt lat="45.337661" lon="22.1248">
        <ele>425.6</ele>
      </trkpt>
      <trkpt lat="45.33774" lon="22.125061">
        <ele>425.0</ele>
      </trkpt>
      <trkpt lat="45.338033" lon="22.125608">
        <ele>423.2</ele>
      </trkpt>
      <trkpt lat="45.338099" lon="22.125954">
        <ele>423.0</ele>
      </trkpt>
      <trkpt lat="45.338264" lon="22.126268">
        <ele>422.4</ele>
      </trkpt>
      <trkpt lat="45.338271" lon="22.126681">
        <ele>422.2</ele>
      </trkpt>
      <trkpt lat="45.338384" lon="22.126893">
        <ele>422.2</ele>
      </trkpt>
      <trkpt lat="45.338541" lon="22.127711">
        <ele>421.4</ele>
      </trkpt>
      <trkpt lat="45.338578" lon="22.12879">
        <ele>417.0</ele>
      </trkpt>
      <trkpt lat="45.338685" lon="22.129577">
        <ele>415.6</ele>
      </trkpt>
      <trkpt lat="45.338606" lon="22.130068">
        <ele>414.2</ele>
      </trkpt>
      <trkpt lat="45.338629" lon="22.130309">
        <ele>413.4</ele>
      </trkpt>
      <trkpt lat="45.338545" lon="22.13083">
        <ele>412.0</ele>
      </trkpt>
      <trkpt lat="45.338557" lon="22.131106">
        <ele>410.2</ele>
      </trkpt>
      <trkpt lat="45.339008" lon="22.133013">
        <ele>406.2</ele>
      </trkpt>
      <trkpt lat="45.339048" lon="22.133404">
        <ele>405.8</ele>
      </trkpt>
      <trkpt lat="45.339211" lon="22.134121">
        <ele>404.4</ele>
      </trkpt>
      <trkpt lat="45.339268" lon="22.134683">
        <ele>402.6</ele>
      </trkpt>
      <trkpt lat="45.339452" lon="22.135237">
        <ele>401.6</ele>
      </trkpt>
      <trkpt lat="45.339546" lon="22.135294">
        <ele>401.4</ele>
      </trkpt>
      <trkpt lat="45.339888" lon="22.135241">
        <ele>402.6</ele>
      </trkpt>
      <trkpt lat="45.340091" lon="22.135094">
        <ele>403.6</ele>
      </trkpt>
      <trkpt lat="45.340269" lon="22.134843">
        <ele>404.8</ele>
      </trkpt>
      <trkpt lat="45.340355" lon="22.134816">
        <ele>405.0</ele>
      </trkpt>
      <trkpt lat="45.340468" lon="22.134637">
        <ele>405.8</ele>
      </trkpt>
      <trkpt lat="45.340717" lon="22.134451">
        <ele>407.6</ele>
      </trkpt>
      <trkpt lat="45.34088" lon="22.13423">
        <ele>409.0</ele>
      </trkpt>
      <trkpt lat="45.341579" lon="22.133687">
        <ele>415.6</ele>
      </trkpt>
      <trkpt lat="45.34219" lon="22.133474">
        <ele>418.2</ele>
      </trkpt>
      <trkpt lat="45.342716" lon="22.132877">
        <ele>423.6</ele>
      </trkpt>
      <trkpt lat="45.34314" lon="22.132487">
        <ele>426.6</ele>
      </trkpt>
      <trkpt lat="45.34322" lon="22.132336">
        <ele>428.0</ele>
      </trkpt>
      <trkpt lat="45.343828" lon="22.131918">
        <ele>435.4</ele>
      </trkpt>
      <trkpt lat="45.344024" lon="22.131857">
        <ele>438.8</ele>
      </trkpt>
      <trkpt lat="45.344152" lon="22.131697">
        <ele>441.6</ele>
      </trkpt>
      <trkpt lat="45.345006" lon="22.131003">
        <ele>446.2</ele>
      </trkpt>
      <trkpt lat="45.345361" lon="22.130472">
        <ele>447.0</ele>
      </trkpt>
      <trkpt lat="45.345656" lon="22.130238">
        <ele>447.2</ele>
      </trkpt>
      <trkpt lat="45.346111" lon="22.130163">
        <ele>449.4</ele>
      </trkpt>
      <trkpt lat="45.346525" lon="22.130363">
        <ele>454.2</ele>
      </trkpt>
      <trkpt lat="45.346745" lon="22.130544">
        <ele>456.6</ele>
      </trkpt>
      <trkpt lat="45.347421" lon="22.130349">
        <ele>468.2</ele>
      </trkpt>
      <trkpt lat="45.348107" lon="22.129969">
        <ele>478.2</ele>
      </trkpt>
      <trkpt lat="45.348616" lon="22.129817">
        <ele>485.8</ele>
      </trkpt>
      <trkpt lat="45.348823" lon="22.129866">
        <ele>490.4</ele>
      </trkpt>
      <trkpt lat="45.349645" lon="22.129674">
        <ele>503.0</ele>
      </trkpt>
      <trkpt lat="45.349888" lon="22.129508">
        <ele>506.4</ele>
      </trkpt>
      <trkpt lat="45.35055" lon="22.129309">
        <ele>515.8</ele>
      </trkpt>
      <trkpt lat="45.35068" lon="22.129216">
        <ele>519.2</ele>
      </trkpt>
      <trkpt lat="45.351055" lon="22.129174">
        <ele>529.4</ele>
      </trkpt>
      <trkpt lat="45.351444" lon="22.129025">
        <ele>537.6</ele>
      </trkpt>
      <trkpt lat="45.351869" lon="22.128769">
        <ele>541.6</ele>
      </trkpt>
      <trkpt lat="45.35207" lon="22.128962">
        <ele>542.6</ele>
      </trkpt>
      <trkpt lat="45.352145" lon="22.129204">
        <ele>544.0</ele>
      </trkpt>
      <trkpt lat="45.352134" lon="22.129486">
        <ele>550.2</ele>
      </trkpt>
      <trkpt lat="45.352037" lon="22.129676">
        <ele>554.2</ele>
      </trkpt>
      <trkpt lat="45.352061" lon="22.130367">
        <ele>567.0</ele>
      </trkpt>
      <trkpt lat="45.352168" lon="22.130916">
        <ele>574.6</ele>
      </trkpt>
      <trkpt lat="45.35241" lon="22.131351">
        <ele>582.6</ele>
      </trkpt>
      <trkpt lat="45.352627" lon="22.131559">
        <ele>587.0</ele>
      </trkpt>
      <trkpt lat="45.353164" lon="22.131828">
        <ele>595.6</ele>
      </trkpt>
      <trkpt lat="45.354136" lon="22.132523">
        <ele>606.8</ele>
      </trkpt>
      <trkpt lat="45.354713" lon="22.13286">
        <ele>607.2</ele>
      </trkpt>
      <trkpt lat="45.355189" lon="22.133358">
        <ele>607.4</ele>
      </trkpt>
      <trkpt lat="45.356021" lon="22.134404">
        <ele>621.6</ele>
      </trkpt>
      <trkpt lat="45.356472" lon="22.134685">
        <ele>627.8</ele>
      </trkpt>
      <trkpt lat="45.356721" lon="22.134695">
        <ele>629.0</ele>
      </trkpt>
      <trkpt lat="45.356899" lon="22.134794">
        <ele>629.2</ele>
      </trkpt>
      <trkpt lat="45.357237" lon="22.135238">
        <ele>628.4</ele>
      </trkpt>
      <trkpt lat="45.357432" lon="22.135412">
        <ele>627.0</ele>
      </trkpt>
      <trkpt lat="45.358042" lon="22.135702">
        <ele>617.4</ele>
      </trkpt>
      <trkpt lat="45.358351" lon="22.13576">
        <ele>614.6</ele>
      </trkpt>
      <trkpt lat="45.358574" lon="22.135721">
        <ele>613.2</ele>
      </trkpt>
      <trkpt lat="45.358984" lon="22.135856">
        <ele>614.2</ele>
      </trkpt>
      <trkpt lat="45.359382" lon="22.135617">
        <ele>611.6</ele>
      </trkpt>
      <trkpt lat="45.359687" lon="22.135349">
        <ele>603.2</ele>
      </trkpt>
      <trkpt lat="45.359973" lon="22.135244">
        <ele>596.4</ele>
      </trkpt>
      <trkpt lat="45.360169" lon="22.135081">
        <ele>592.0</ele>
      </trkpt>
      <trkpt lat="45.360435" lon="22.13496">
        <ele>585.2</ele>
      </trkpt>
      <trkpt lat="45.360972" lon="22.134393">
        <ele>568.8</ele>
      </trkpt>
      <trkpt lat="45.361138" lon="22.13445">
        <ele>563.6</ele>
      </trkpt>
      <trkpt lat="45.36114" lon="22.134559">
        <ele>561.4</ele>
      </trkpt>
      <trkpt lat="45.361305" lon="22.135006">
        <ele>558.6</ele>
      </trkpt>
      <trkpt lat="45.361373" lon="22.135843">
        <ele>546.0</ele>
      </trkpt>
      <trkpt lat="45.361497" lon="22.136214">
        <ele>541.4</ele>
      </trkpt>
      <trkpt lat="45.361959" lon="22.136701">
        <ele>536.0</ele>
      </trkpt>
      <trkpt lat="45.362349" lon="22.136965">
        <ele>531.4</ele>
      </trkpt>
      <trkpt lat="45.363082" lon="22.137937">
        <ele>523.6</ele>
      </trkpt>
      <trkpt lat="45.363292" lon="22.138369">
        <ele>520.2</ele>
      </trkpt>
      <trkpt lat="45.363525" lon="22.139444">
        <ele>515.4</ele>
      </trkpt>
      <trkpt lat="45.364229" lon="22.140831">
        <ele>515.6</ele>
      </trkpt>
      <trkpt lat="45.364683" lon="22.141221">
        <ele>508.6</ele>
      </trkpt>
      <trkpt lat="45.364864" lon="22.141527">
        <ele>498.0</ele>
      </trkpt>
      <trkpt lat="45.365182" lon="22.141869">
        <ele>506.8</ele>
      </trkpt>
      <trkpt lat="45.366519" lon="22.143034">
        <ele>538.4</ele>
      </trkpt>
      <trkpt lat="45.367556" lon="22.144615">
        <ele>545.6</ele>
      </trkpt>
      <trkpt lat="45.368402" lon="22.14557">
        <ele>564.2</ele>
      </trkpt>
      <trkpt lat="45.368772" lon="22.146244">
        <ele>567.0</ele>
      </trkpt>
      <trkpt lat="45.370178" lon="22.1476">
        <ele>576.8</ele>
      </trkpt>
      <trkpt lat="45.370778" lon="22.14858">
        <ele>567.8</ele>
      </trkpt>
      <trkpt lat="45.371366" lon="22.149703">
        <ele>548.0</ele>
      </trkpt>
      <trkpt lat="45.371905" lon="22.150985">
        <ele>549.4</ele>
      </trkpt>
      <trkpt lat="45.372071" lon="22.151704">
        <ele>549.4</ele>
      </trkpt>
      <trkpt lat="45.372161" lon="22.151917">
        <ele>546.4</ele>
      </trkpt>
      <trkpt lat="45.372726" lon="22.153003">
        <ele>521.6</ele>
      </trkpt>
      <trkpt lat="45.373335" lon="22.154001">
        <ele>510.4</ele>
      </trkpt>
      <trkpt lat="45.373658" lon="22.154708">
        <ele>499.0</ele>
      </trkpt>
      <trkpt lat="45.373761" lon="22.154763">
        <ele>494.2</ele>
      </trkpt>
      <trkpt lat="45.373764" lon="22.154893">
        <ele>489.8</ele>
      </trkpt>
      <trkpt lat="45.373957" lon="22.155158">
        <ele>478.0</ele>
      </trkpt>
      <trkpt lat="45.373886" lon="22.155637">
        <ele>473.2</ele>
      </trkpt>
      <trkpt lat="45.374016" lon="22.156045">
        <ele>467.8</ele>
      </trkpt>
      <trkpt lat="45.374096" lon="22.155983">
        <ele>461.0</ele>
      </trkpt>
      <trkpt lat="45.374369" lon="22.156024">
        <ele>455.0</ele>
      </trkpt>
      <trkpt lat="45.37455" lon="22.156375">
        <ele>448.6</ele>
      </trkpt>
      <trkpt lat="45.375109" lon="22.156634">
        <ele>452.8</ele>
      </trkpt>
      <trkpt lat="45.375293" lon="22.156836">
        <ele>458.4</ele>
      </trkpt>
      <trkpt lat="45.375289" lon="22.156928">
        <ele>461.0</ele>
      </trkpt>
      <trkpt lat="45.375001" lon="22.157456">
        <ele>464.4</ele>
      </trkpt>
      <trkpt lat="45.37517" lon="22.158271">
        <ele>462.8</ele>
      </trkpt>
      <trkpt lat="45.375366" lon="22.158662">
        <ele>458.6</ele>
      </trkpt>
      <trkpt lat="45.375606" lon="22.158911">
        <ele>458.0</ele>
      </trkpt>
      <trkpt lat="45.375854" lon="22.159489">
        <ele>456.6</ele>
      </trkpt>
      <trkpt lat="45.376568" lon="22.160843">
        <ele>457.6</ele>
      </trkpt>
      <trkpt lat="45.37682" lon="22.161113">
        <ele>459.2</ele>
      </trkpt>
      <trkpt lat="45.377122" lon="22.161673">
        <ele>467.2</ele>
      </trkpt>
      <trkpt lat="45.377823" lon="22.16243">
        <ele>480.2</ele>
      </trkpt>
      <trkpt lat="45.37852" lon="22.162866">
        <ele>488.4</ele>
      </trkpt>
      <trkpt lat="45.378983" lon="22.163023">
        <ele>497.0</ele>
      </trkpt>
      <trkpt lat="45.379657" lon="22.162935">
        <ele>509.2</ele>
      </trkpt>
      <trkpt lat="45.379817" lon="22.163019">
        <ele>511.0</ele>
      </trkpt>
      <trkpt lat="45.38001" lon="22.163283">
        <ele>512.6</ele>
      </trkpt>
      <trkpt lat="45.380048" lon="22.163421">
        <ele>512.4</ele>
      </trkpt>
      <trkpt lat="45.380029" lon="22.163627">
        <ele>512.2</ele>
      </trkpt>
      <trkpt lat="45.379755" lon="22.164121">
        <ele>513.2</ele>
      </trkpt>
      <trkpt lat="45.379702" lon="22.164322">
        <ele>513.8</ele>
      </trkpt>
      <trkpt lat="45.379562" lon="22.164548">
        <ele>514.8</ele>
      </trkpt>
      <trkpt lat="45.379276" lon="22.164766">
        <ele>515.6</ele>
      </trkpt>
      <trkpt lat="45.378751" lon="22.165622">
        <ele>509.8</ele>
      </trkpt>
      <trkpt lat="45.378663" lon="22.165958">
        <ele>506.0</ele>
      </trkpt>
      <trkpt lat="45.378693" lon="22.166469">
        <ele>503.6</ele>
      </trkpt>
      <trkpt lat="45.37884" lon="22.167042">
        <ele>501.2</ele>
      </trkpt>
      <trkpt lat="45.378807" lon="22.167469">
        <ele>501.0</ele>
      </trkpt>
      <trkpt lat="45.378845" lon="22.167903">
        <ele>503.6</ele>
      </trkpt>
      <trkpt lat="45.379027" lon="22.168692">
        <ele>508.6</ele>
      </trkpt>
      <trkpt lat="45.379038" lon="22.168935">
        <ele>508.8</ele>
      </trkpt>
      <trkpt lat="45.378546" lon="22.169796">
        <ele>514.4</ele>
      </trkpt>
      <trkpt lat="45.378513" lon="22.16994">
        <ele>515.8</ele>
      </trkpt>
      <trkpt lat="45.378561" lon="22.170054">
        <ele>517.4</ele>
      </trkpt>
      <trkpt lat="45.378355" lon="22.17016">
        <ele>517.6</ele>
      </trkpt>
      <trkpt lat="45.378229" lon="22.170402">
        <ele>520.2</ele>
      </trkpt>
      <trkpt lat="45.377515" lon="22.170756">
        <ele>523.0</ele>
      </trkpt>
      <trkpt lat="45.376512" lon="22.171996">
        <ele>522.0</ele>
      </trkpt>
      <trkpt lat="45.376275" lon="22.172493">
        <ele>521.2</ele>
      </trkpt>
      <trkpt lat="45.376131" lon="22.173575">
        <ele>512.0</ele>
      </trkpt>
      <trkpt lat="45.3763" lon="22.173612">
        <ele>509.4</ele>
      </trkpt>
      <trkpt lat="45.376536" lon="22.173506">
        <ele>508.6</ele>
      </trkpt>
      <trkpt lat="45.376583" lon="22.173402">
        <ele>508.2</ele>
      </trkpt>
      <trkpt lat="45.376636" lon="22.172888">
        <ele>504.4</ele>
      </trkpt>
      <trkpt lat="45.37724" lon="22.172357">
        <ele>502.0</ele>
      </trkpt>
      <trkpt lat="45.37786" lon="22.172479">
        <ele>500.4</ele>
      </trkpt>
      <trkpt lat="45.378104" lon="22.172421">
        <ele>500.4</ele>
      </trkpt>
      <trkpt lat="45.378622" lon="22.172427">
        <ele>498.4</ele>
      </trkpt>
      <trkpt lat="45.379401" lon="22.172246">
        <ele>493.6</ele>
      </trkpt>
      <trkpt lat="45.379491" lon="22.172315">
        <ele>492.6</ele>
      </trkpt>
      <trkpt lat="45.379656" lon="22.172636">
        <ele>490.2</ele>
      </trkpt>
      <trkpt lat="45.380159" lon="22.173104">
        <ele>486.0</ele>
      </trkpt>
      <trkpt lat="45.380373" lon="22.173523">
        <ele>477.6</ele>
      </trkpt>
      <trkpt lat="45.38054" lon="22.173733">
        <ele>473.8</ele>
      </trkpt>
      <trkpt lat="45.381984" lon="22.175186">
        <ele>474.4</ele>
      </trkpt>
      <trkpt lat="45.382369" lon="22.1755">
        <ele>477.4</ele>
      </trkpt>
      <trkpt lat="45.383393" lon="22.176123">
        <ele>477.2</ele>
      </trkpt>
      <trkpt lat="45.383925" lon="22.176199">
        <ele>478.6</ele>
      </trkpt>
      <trkpt lat="45.384296" lon="22.17615">
        <ele>480.0</ele>
      </trkpt>
      <trkpt lat="45.384562" lon="22.176263">
        <ele>483.0</ele>
      </trkpt>
      <trkpt lat="45.384814" lon="22.176484">
        <ele>487.2</ele>
      </trkpt>
      <trkpt lat="45.38518" lon="22.176986">
        <ele>493.8</ele>
      </trkpt>
      <trkpt lat="45.385342" lon="22.177035">
        <ele>495.6</ele>
      </trkpt>
      <trkpt lat="45.385592" lon="22.177304">
        <ele>498.0</ele>
      </trkpt>
      <trkpt lat="45.385968" lon="22.177561">
        <ele>502.2</ele>
      </trkpt>
      <trkpt lat="45.386285" lon="22.177986">
        <ele>505.4</ele>
      </trkpt>
      <trkpt lat="45.386414" lon="22.17803">
        <ele>505.6</ele>
      </trkpt>
      <trkpt lat="45.386572" lon="22.178195">
        <ele>507.0</ele>
      </trkpt>
      <trkpt lat="45.386851" lon="22.178802">
        <ele>507.8</ele>
      </trkpt>
      <trkpt lat="45.386935" lon="22.179193">
        <ele>506.8</ele>
      </trkpt>
      <trkpt lat="45.387056" lon="22.179364">
        <ele>505.0</ele>
      </trkpt>
      <trkpt lat="45.387376" lon="22.179498">
        <ele>499.4</ele>
      </trkpt>
      <trkpt lat="45.38818" lon="22.17937">
        <ele>483.0</ele>
      </trkpt>
      <trkpt lat="45.388615" lon="22.179427">
        <ele>475.2</ele>
      </trkpt>
      <trkpt lat="45.389211" lon="22.179186">
        <ele>471.4</ele>
      </trkpt>
      <trkpt lat="45.390405" lon="22.179062">
        <ele>468.0</ele>
      </trkpt>
      <trkpt lat="45.390754" lon="22.179114">
        <ele>466.8</ele>
      </trkpt>
      <trkpt lat="45.390963" lon="22.179039">
        <ele>466.4</ele>
      </trkpt>
      <trkpt lat="45.392928" lon="22.179167">
        <ele>467.8</ele>
      </trkpt>
      <trkpt lat="45.393697" lon="22.179325">
        <ele>463.8</ele>
      </trkpt>
      <trkpt lat="45.393693" lon="22.180226">
        <ele>456.4</ele>
      </trkpt>
      <trkpt lat="45.393997" lon="22.180878">
        <ele>453.8</ele>
      </trkpt>
      <trkpt lat="45.394217" lon="22.181846">
        <ele>440.6</ele>
      </trkpt>
      <trkpt lat="45.394416" lon="22.182339">
        <ele>436.8</ele>
      </trkpt>
      <trkpt lat="45.394736" lon="22.182839">
        <ele>433.0</ele>
      </trkpt>
      <trkpt lat="45.394933" lon="22.18303">
        <ele>430.6</ele>
      </trkpt>
      <trkpt lat="45.395225" lon="22.183178">
        <ele>428.4</ele>
      </trkpt>
      <trkpt lat="45.39567" lon="22.183526">
        <ele>424.6</ele>
      </trkpt>
      <trkpt lat="45.396242" lon="22.183781">
        <ele>414.8</ele>
      </trkpt>
      <trkpt lat="45.397168" lon="22.184951">
        <ele>400.2</ele>
      </trkpt>
      <trkpt lat="45.397649" lon="22.186137">
        <ele>393.2</ele>
      </trkpt>
      <trkpt lat="45.397669" lon="22.186864">
        <ele>382.2</ele>
      </trkpt>
      <trkpt lat="45.397753" lon="22.187129">
        <ele>377.0</ele>
      </trkpt>
      <trkpt lat="45.397624" lon="22.187745">
        <ele>364.8</ele>
      </trkpt>
      <trkpt lat="45.397601" lon="22.188117">
        <ele>358.0</ele>
      </trkpt>
      <trkpt lat="45.39762" lon="22.188255">
        <ele>356.2</ele>
      </trkpt>
      <trkpt lat="45.397734" lon="22.18847">
        <ele>351.4</ele>
      </trkpt>
      <trkpt lat="45.397788" lon="22.188525">
        <ele>349.0</ele>
      </trkpt>
      <trkpt lat="45.398128" lon="22.188567">
        <ele>337.6</ele>
      </trkpt>
      <trkpt lat="45.398567" lon="22.189029">
        <ele>317.4</ele>
      </trkpt>
      <trkpt lat="45.399181" lon="22.18939">
        <ele>314.0</ele>
      </trkpt>
      <trkpt lat="45.399273" lon="22.189715">
        <ele>312.0</ele>
      </trkpt>
      <trkpt lat="45.399323" lon="22.190299">
        <ele>303.8</ele>
      </trkpt>
      <trkpt lat="45.399436" lon="22.190605">
        <ele>297.6</ele>
      </trkpt>
      <trkpt lat="45.40025" lon="22.19104">
        <ele>289.4</ele>
      </trkpt>
      <trkpt lat="45.400684" lon="22.191814">
        <ele>280.2</ele>
      </trkpt>
      <trkpt lat="45.400813" lon="22.191938">
        <ele>276.2</ele>
      </trkpt>
      <trkpt lat="45.401225" lon="22.191956">
        <ele>271.8</ele>
      </trkpt>
      <trkpt lat="45.401353" lon="22.191998">
        <ele>271.0</ele>
      </trkpt>
      <trkpt lat="45.401463" lon="22.192117">
        <ele>270.2</ele>
      </trkpt>
      <trkpt lat="45.402129" lon="22.193542">
        <ele>266.4</ele>
      </trkpt>
      <trkpt lat="45.402098" lon="22.194625">
        <ele>262.4</ele>
      </trkpt>
      <trkpt lat="45.402123" lon="22.194792">
        <ele>261.2</ele>
      </trkpt>
      <trkpt lat="45.40219" lon="22.194888">
        <ele>259.6</ele>
      </trkpt>
      <trkpt lat="45.402493" lon="22.194892">
        <ele>257.8</ele>
      </trkpt>
      <trkpt lat="45.403318" lon="22.194675">
        <ele>265.6</ele>
      </trkpt>
      <trkpt lat="45.403833" lon="22.194388">
        <ele>267.6</ele>
      </trkpt>
      <trkpt lat="45.405303" lon="22.193012">
        <ele>262.6</ele>
      </trkpt>
      <trkpt lat="45.405535" lon="22.192696">
        <ele>261.0</ele>
      </trkpt>
      <trkpt lat="45.405756" lon="22.192154">
        <ele>260.0</ele>
      </trkpt>
      <trkpt lat="45.405857" lon="22.192009">
        <ele>260.0</ele>
      </trkpt>
      <trkpt lat="45.405968" lon="22.191978">
        <ele>259.8</ele>
      </trkpt>
      <trkpt lat="45.40726" lon="22.192115">
        <ele>252.8</ele>
      </trkpt>
      <trkpt lat="45.407919" lon="22.192055">
        <ele>251.8</ele>
      </trkpt>
      <trkpt lat="45.408127" lon="22.191972">
        <ele>252.4</ele>
      </trkpt>
      <trkpt lat="45.408274" lon="22.191813">
        <ele>252.6</ele>
      </trkpt>
      <trkpt lat="45.407796" lon="22.191142">
        <ele>252.4</ele>
      </trkpt>
      <trkpt lat="45.407202" lon="22.189944">
        <ele>255.0</ele>
      </trkpt>
      <trkpt lat="45.406601" lon="22.188408">
        <ele>260.4</ele>
      </trkpt>
      <trkpt lat="45.406537" lon="22.188312">
        <ele>260.8</ele>
      </trkpt>
      <trkpt lat="45.406429" lon="22.188277">
        <ele>261.2</ele>
      </trkpt>
      <trkpt lat="45.405619" lon="22.188526">
        <ele>261.4</ele>
      </trkpt>
      <trkpt lat="45.405413" lon="22.188451">
        <ele>261.2</ele>
      </trkpt>
      <trkpt lat="45.405076" lon="22.18777">
        <ele>264.4</ele>
      </trkpt>
      <trkpt lat="45.404882" lon="22.187522">
        <ele>267.4</ele>
      </trkpt>
      <trkpt lat="45.404714" lon="22.187051">
        <ele>273.2</ele>
      </trkpt>
      <trkpt lat="45.404579" lon="22.186939">
        <ele>275.2</ele>
      </trkpt>
      <trkpt lat="45.404543" lon="22.186791">
        <ele>277.2</ele>
      </trkpt>
      <trkpt lat="45.404251" lon="22.186316">
        <ele>280.0</ele>
      </trkpt>
      <trkpt lat="45.403751" lon="22.185729">
        <ele>279.2</ele>
      </trkpt>
      <trkpt lat="45.403424" lon="22.185232">
        <ele>277.4</ele>
      </trkpt>
      <trkpt lat="45.402759" lon="22.184526">
        <ele>278.0</ele>
      </trkpt>
      <trkpt lat="45.402615" lon="22.184295">
        <ele>279.0</ele>
      </trkpt>
      <trkpt lat="45.402504" lon="22.183866">
        <ele>280.6</ele>
      </trkpt>
      <trkpt lat="45.402378" lon="22.183577">
        <ele>282.8</ele>
      </trkpt>
      <trkpt lat="45.401999" lon="22.18329">
        <ele>284.0</ele>
      </trkpt>
      <trkpt lat="45.401907" lon="22.183182">
        <ele>284.8</ele>
      </trkpt>
      <trkpt lat="45.401797" lon="22.182913">
        <ele>288.4</ele>
      </trkpt>
      <trkpt lat="45.401556" lon="22.182691">
        <ele>290.2</ele>
      </trkpt>
      <trkpt lat="45.401124" lon="22.182506">
        <ele>292.2</ele>
      </trkpt>
      <trkpt lat="45.400948" lon="22.182361">
        <ele>293.4</ele>
      </trkpt>
      <trkpt lat="45.400794" lon="22.182391">
        <ele>294.2</ele>
      </trkpt>
      <trkpt lat="45.400397" lon="22.182304">
        <ele>297.0</ele>
      </trkpt>
      <trkpt lat="45.400136" lon="22.182344">
        <ele>298.2</ele>
      </trkpt>
      <trkpt lat="45.399719" lon="22.182278">
        <ele>303.0</ele>
      </trkpt>
      <trkpt lat="45.399427" lon="22.182139">
        <ele>303.6</ele>
      </trkpt>
      <trkpt lat="45.398826" lon="22.182072">
        <ele>311.4</ele>
      </trkpt>
      <trkpt lat="45.398548" lon="22.181907">
        <ele>314.6</ele>
      </trkpt>
      <trkpt lat="45.398246" lon="22.181541">
        <ele>318.2</ele>
      </trkpt>
      <trkpt lat="45.397742" lon="22.181276">
        <ele>324.4</ele>
      </trkpt>
      <trkpt lat="45.397628" lon="22.181139">
        <ele>327.4</ele>
      </trkpt>
      <trkpt lat="45.397634" lon="22.181003">
        <ele>329.6</ele>
      </trkpt>
      <trkpt lat="45.397558" lon="22.180924">
        <ele>331.0</ele>
      </trkpt>
      <trkpt lat="45.397548" lon="22.180641">
        <ele>336.0</ele>
      </trkpt>
      <trkpt lat="45.397101" lon="22.179643">
        <ele>342.4</ele>
      </trkpt>
      <trkpt lat="45.397089" lon="22.17948">
        <ele>343.0</ele>
      </trkpt>
      <trkpt lat="45.396969" lon="22.17922">
        <ele>343.4</ele>
      </trkpt>
      <trkpt lat="45.396992" lon="22.179116">
        <ele>343.6</ele>
      </trkpt>
      <trkpt lat="45.396879" lon="22.178984">
        <ele>344.2</ele>
      </trkpt>
      <trkpt lat="45.396903" lon="22.178631">
        <ele>345.6</ele>
      </trkpt>
      <trkpt lat="45.396802" lon="22.17836">
        <ele>346.0</ele>
      </trkpt>
      <trkpt lat="45.396807" lon="22.178248">
        <ele>347.2</ele>
      </trkpt>
      <trkpt lat="45.396643" lon="22.17809">
        <ele>350.8</ele>
      </trkpt>
      <trkpt lat="45.396622" lon="22.177941">
        <ele>351.2</ele>
      </trkpt>
      <trkpt lat="45.396465" lon="22.177694">
        <ele>352.4</ele>
      </trkpt>
      <trkpt lat="45.396473" lon="22.177573">
        <ele>352.4</ele>
      </trkpt>
      <trkpt lat="45.396176" lon="22.177329">
        <ele>353.6</ele>
      </trkpt>
      <trkpt lat="45.395854" lon="22.177202">
        <ele>355.2</ele>
      </trkpt>
      <trkpt lat="45.395618" lon="22.176968">
        <ele>360.4</ele>
      </trkpt>
      <trkpt lat="45.39526" lon="22.17685">
        <ele>361.4</ele>
      </trkpt>
      <trkpt lat="45.394933" lon="22.17664">
        <ele>361.8</ele>
      </trkpt>
      <trkpt lat="45.394814" lon="22.176402">
        <ele>364.0</ele>
      </trkpt>
      <trkpt lat="45.394466" lon="22.176141">
        <ele>364.2</ele>
      </trkpt>
      <trkpt lat="45.394122" lon="22.176031">
        <ele>367.0</ele>
      </trkpt>
      <trkpt lat="45.393932" lon="22.175858">
        <ele>369.8</ele>
      </trkpt>
      <trkpt lat="45.393839" lon="22.175652">
        <ele>369.6</ele>
      </trkpt>
      <trkpt lat="45.393214" lon="22.175342">
        <ele>369.6</ele>
      </trkpt>
      <trkpt lat="45.392927" lon="22.175118">
        <ele>370.0</ele>
      </trkpt>
      <trkpt lat="45.39239" lon="22.17496">
        <ele>372.0</ele>
      </trkpt>
      <trkpt lat="45.392114" lon="22.17494">
        <ele>373.2</ele>
      </trkpt>
      <trkpt lat="45.391778" lon="22.174624">
        <ele>374.4</ele>
      </trkpt>
      <trkpt lat="45.391679" lon="22.174363">
        <ele>375.4</ele>
      </trkpt>
      <trkpt lat="45.391403" lon="22.174063">
        <ele>376.2</ele>
      </trkpt>
      <trkpt lat="45.390762" lon="22.173638">
        <ele>378.2</ele>
      </trkpt>
      <trkpt lat="45.390459" lon="22.17352">
        <ele>380.0</ele>
      </trkpt>
      <trkpt lat="45.390352" lon="22.173301">
        <ele>382.0</ele>
      </trkpt>
      <trkpt lat="45.390446" lon="22.172832">
        <ele>387.4</ele>
      </trkpt>
      <trkpt lat="45.390336" lon="22.172134">
        <ele>394.0</ele>
      </trkpt>
      <trkpt lat="45.390383" lon="22.171904">
        <ele>397.0</ele>
      </trkpt>
      <trkpt lat="45.39035" lon="22.171802">
        <ele>398.0</ele>
      </trkpt>
      <trkpt lat="45.390595" lon="22.171488">
        <ele>405.0</ele>
      </trkpt>
      <trkpt lat="45.391148" lon="22.171428">
        <ele>419.0</ele>
      </trkpt>
      <trkpt lat="45.391219" lon="22.171601">
        <ele>422.4</ele>
      </trkpt>
      <trkpt lat="45.391214" lon="22.172001">
        <ele>427.4</ele>
      </trkpt>
      <trkpt lat="45.391351" lon="22.172262">
        <ele>430.6</ele>
      </trkpt>
      <trkpt lat="45.39147" lon="22.172343">
        <ele>432.2</ele>
      </trkpt>
      <trkpt lat="45.391641" lon="22.172169">
        <ele>437.8</ele>
      </trkpt>
      <trkpt lat="45.391791" lon="22.172101">
        <ele>441.0</ele>
      </trkpt>
      <trkpt lat="45.391977" lon="22.171811">
        <ele>446.0</ele>
      </trkpt>
      <trkpt lat="45.392564" lon="22.170775">
        <ele>456.8</ele>
      </trkpt>
      <trkpt lat="45.392645" lon="22.170394">
        <ele>459.4</ele>
      </trkpt>
      <trkpt lat="45.392823" lon="22.170031">
        <ele>463.8</ele>
      </trkpt>
      <trkpt lat="45.392824" lon="22.169698">
        <ele>468.0</ele>
      </trkpt>
      <trkpt lat="45.392934" lon="22.169337">
        <ele>473.6</ele>
      </trkpt>
      <trkpt lat="45.392931" lon="22.169198">
        <ele>473.8</ele>
      </trkpt>
      <trkpt lat="45.392753" lon="22.168579">
        <ele>478.2</ele>
      </trkpt>
      <trkpt lat="45.392763" lon="22.168355">
        <ele>481.0</ele>
      </trkpt>
      <trkpt lat="45.392813" lon="22.168069">
        <ele>484.6</ele>
      </trkpt>
      <trkpt lat="45.392985" lon="22.167616">
        <ele>488.2</ele>
      </trkpt>
      <trkpt lat="45.392991" lon="22.167413">
        <ele>489.0</ele>
      </trkpt>
      <trkpt lat="45.392944" lon="22.167146">
        <ele>490.2</ele>
      </trkpt>
      <trkpt lat="45.392679" lon="22.166598">
        <ele>495.4</ele>
      </trkpt>
      <trkpt lat="45.392515" lon="22.166082">
        <ele>498.4</ele>
      </trkpt>
      <trkpt lat="45.392349" lon="22.164928">
        <ele>496.6</ele>
      </trkpt>
      <trkpt lat="45.392369" lon="22.164788">
        <ele>495.6</ele>
      </trkpt>
      <trkpt lat="45.392686" lon="22.165293">
        <ele>492.0</ele>
      </trkpt>
      <trkpt lat="45.39305" lon="22.165602">
        <ele>494.8</ele>
      </trkpt>
      <trkpt lat="45.393385" lon="22.166011">
        <ele>496.2</ele>
      </trkpt>
      <trkpt lat="45.394128" lon="22.166497">
        <ele>492.4</ele>
      </trkpt>
      <trkpt lat="45.394767" lon="22.167084">
        <ele>486.2</ele>
      </trkpt>
      <trkpt lat="45.395099" lon="22.167671">
        <ele>478.6</ele>
      </trkpt>
      <trkpt lat="45.395454" lon="22.168142">
        <ele>475.2</ele>
      </trkpt>
      <trkpt lat="45.395988" lon="22.168473">
        <ele>473.8</ele>
      </trkpt>
      <trkpt lat="45.396172" lon="22.168646">
        <ele>474.4</ele>
      </trkpt>
      <trkpt lat="45.396496" lon="22.169312">
        <ele>472.6</ele>
      </trkpt>
      <trkpt lat="45.39704" lon="22.169956">
        <ele>464.0</ele>
      </trkpt>
      <trkpt lat="45.397927" lon="22.171289">
        <ele>451.6</ele>
      </trkpt>
      <trkpt lat="45.398554" lon="22.173213">
        <ele>446.0</ele>
      </trkpt>
      <trkpt lat="45.398706" lon="22.173581">
        <ele>445.2</ele>
      </trkpt>
      <trkpt lat="45.398833" lon="22.173705">
        <ele>444.6</ele>
      </trkpt>
      <trkpt lat="45.399258" lon="22.173691">
        <ele>440.6</ele>
      </trkpt>
      <trkpt lat="45.399373" lon="22.173598">
        <ele>438.0</ele>
      </trkpt>
      <trkpt lat="45.399509" lon="22.173316">
        <ele>433.6</ele>
      </trkpt>
      <trkpt lat="45.399569" lon="22.172982">
        <ele>427.2</ele>
      </trkpt>
      <trkpt lat="45.399633" lon="22.172953">
        <ele>420.6</ele>
      </trkpt>
      <trkpt lat="45.399738" lon="22.172674">
        <ele>418.0</ele>
      </trkpt>
      <trkpt lat="45.400053" lon="22.172366">
        <ele>410.6</ele>
      </trkpt>
      <trkpt lat="45.400375" lon="22.172476">
        <ele>402.2</ele>
      </trkpt>
      <trkpt lat="45.400615" lon="22.1724">
        <ele>391.4</ele>
      </trkpt>
      <trkpt lat="45.400889" lon="22.172481">
        <ele>387.8</ele>
      </trkpt>
      <trkpt lat="45.401421" lon="22.172464">
        <ele>384.8</ele>
      </trkpt>
      <trkpt lat="45.40175" lon="22.172794">
        <ele>381.8</ele>
      </trkpt>
      <trkpt lat="45.401863" lon="22.17312">
        <ele>377.6</ele>
      </trkpt>
      <trkpt lat="45.402039" lon="22.17344">
        <ele>373.8</ele>
      </trkpt>
      <trkpt lat="45.40231" lon="22.173567">
        <ele>369.0</ele>
      </trkpt>
      <trkpt lat="45.403202" lon="22.174839">
        <ele>361.8</ele>
      </trkpt>
      <trkpt lat="45.403871" lon="22.175053">
        <ele>360.6</ele>
      </trkpt>
      <trkpt lat="45.404952" lon="22.175646">
        <ele>362.4</ele>
      </trkpt>
      <trkpt lat="45.405185" lon="22.175704">
        <ele>361.6</ele>
      </trkpt>
      <trkpt lat="45.405671" lon="22.17545">
        <ele>359.0</ele>
      </trkpt>
      <trkpt lat="45.406019" lon="22.175473">
        <ele>354.6</ele>
      </trkpt>
      <trkpt lat="45.406303" lon="22.175393">
        <ele>351.0</ele>
      </trkpt>
      <trkpt lat="45.406851" lon="22.174907">
        <ele>345.2</ele>
      </trkpt>
      <trkpt lat="45.407117" lon="22.174473">
        <ele>343.2</ele>
      </trkpt>
      <trkpt lat="45.407437" lon="22.173639">
        <ele>335.4</ele>
      </trkpt>
      <trkpt lat="45.407448" lon="22.173253">
        <ele>333.4</ele>
      </trkpt>
      <trkpt lat="45.407294" lon="22.17275">
        <ele>331.4</ele>
      </trkpt>
      <trkpt lat="45.407346" lon="22.172631">
        <ele>330.2</ele>
      </trkpt>
      <trkpt lat="45.407966" lon="22.172059">
        <ele>329.4</ele>
      </trkpt>
      <trkpt lat="45.408597" lon="22.171579">
        <ele>331.4</ele>
      </trkpt>
      <trkpt lat="45.408676" lon="22.171567">
        <ele>331.2</ele>
      </trkpt>
      <trkpt lat="45.408753" lon="22.172026">
        <ele>330.6</ele>
      </trkpt>
      <trkpt lat="45.408904" lon="22.172429">
        <ele>329.4</ele>
      </trkpt>
      <trkpt lat="45.409275" lon="22.173117">
        <ele>326.6</ele>
      </trkpt>
      <trkpt lat="45.40952" lon="22.173464">
        <ele>325.8</ele>
      </trkpt>
      <trkpt lat="45.409618" lon="22.173751">
        <ele>325.2</ele>
      </trkpt>
      <trkpt lat="45.409574" lon="22.174687">
        <ele>321.0</ele>
      </trkpt>
      <trkpt lat="45.409654" lon="22.174821">
        <ele>319.6</ele>
      </trkpt>
      <trkpt lat="45.409665" lon="22.175235">
        <ele>317.8</ele>
      </trkpt>
      <trkpt lat="45.409344" lon="22.176973">
        <ele>313.0</ele>
      </trkpt>
      <trkpt lat="45.409325" lon="22.177136">
        <ele>312.6</ele>
      </trkpt>
      <trkpt lat="45.409362" lon="22.177311">
        <ele>312.4</ele>
      </trkpt>
      <trkpt lat="45.409629" lon="22.177893">
        <ele>311.0</ele>
      </trkpt>
      <trkpt lat="45.409883" lon="22.178218">
        <ele>309.4</ele>
      </trkpt>
      <trkpt lat="45.410141" lon="22.178858">
        <ele>301.0</ele>
      </trkpt>
      <trkpt lat="45.410429" lon="22.179038">
        <ele>301.0</ele>
      </trkpt>
      <trkpt lat="45.410894" lon="22.179146">
        <ele>300.2</ele>
      </trkpt>
      <trkpt lat="45.411022" lon="22.179274">
        <ele>299.2</ele>
      </trkpt>
      <trkpt lat="45.411022" lon="22.179379">
        <ele>298.0</ele>
      </trkpt>
      <trkpt lat="45.410928" lon="22.179571">
        <ele>296.8</ele>
      </trkpt>
      <trkpt lat="45.410915" lon="22.17977">
        <ele>296.2</ele>
      </trkpt>
      <trkpt lat="45.410965" lon="22.180079">
        <ele>295.6</ele>
      </trkpt>
      <trkpt lat="45.410937" lon="22.180272">
        <ele>294.8</ele>
      </trkpt>
      <trkpt lat="45.410813" lon="22.180513">
        <ele>292.6</ele>
      </trkpt>
      <trkpt lat="45.410303" lon="22.181072">
        <ele>284.6</ele>
      </trkpt>
      <trkpt lat="45.410279" lon="22.181248">
        <ele>282.8</ele>
      </trkpt>
      <trkpt lat="45.410348" lon="22.181451">
        <ele>279.8</ele>
      </trkpt>
      <trkpt lat="45.41073" lon="22.18187">
        <ele>274.2</ele>
      </trkpt>
      <trkpt lat="45.411152" lon="22.182504">
        <ele>268.0</ele>
      </trkpt>
      <trkpt lat="45.411378" lon="22.18337">
        <ele>260.2</ele>
      </trkpt>
      <trkpt lat="45.41143" lon="22.184273">
        <ele>254.0</ele>
      </trkpt>
      <trkpt lat="45.411395" lon="22.184405">
        <ele>253.4</ele>
      </trkpt>
      <trkpt lat="45.411184" lon="22.184657">
        <ele>251.2</ele>
      </trkpt>
      <trkpt lat="45.411049" lon="22.18533">
        <ele>249.8</ele>
      </trkpt>
      <trkpt lat="45.411212" lon="22.185771">
        <ele>249.2</ele>
      </trkpt>
      <trkpt lat="45.411238" lon="22.185975">
        <ele>248.8</ele>
      </trkpt>
      <trkpt lat="45.411236" lon="22.188913">
        <ele>248.8</ele>
      </trkpt>
      <trkpt lat="45.410901" lon="22.189861">
        <ele>249.6</ele>
      </trkpt>
      <trkpt lat="45.409751" lon="22.192668">
        <ele>250.8</ele>
      </trkpt>
      <trkpt lat="45.409727" lon="22.192897">
        <ele>250.8</ele>
      </trkpt>
      <trkpt lat="45.410513" lon="22.193487">
        <ele>249.6</ele>
      </trkpt>
      <trkpt lat="45.412324" lon="22.194636">
        <ele>246.8</ele>
      </trkpt>
      <trkpt lat="45.412614" lon="22.194696">
        <ele>246.6</ele>
      </trkpt>
      <trkpt lat="45.413727" lon="22.194544">
        <ele>244.0</ele>
      </trkpt>
      <trkpt lat="45.414014" lon="22.194695">
        <ele>243.6</ele>
      </trkpt>
      <trkpt lat="45.414857" lon="22.195649">
        <ele>240.6</ele>
      </trkpt>
      <trkpt lat="45.415076" lon="22.195831">
        <ele>238.4</ele>
      </trkpt>
      <trkpt lat="45.415138" lon="22.196539">
        <ele>236.0</ele>
      </trkpt>
      <trkpt lat="45.415606" lon="22.198291">
        <ele>232.6</ele>
      </trkpt>
      <trkpt lat="45.415656" lon="22.198681">
        <ele>232.0</ele>
      </trkpt>
      <trkpt lat="45.415579" lon="22.199193">
        <ele>230.8</ele>
      </trkpt>
      <trkpt lat="45.415299" lon="22.199644">
        <ele>228.6</ele>
      </trkpt>
      <trkpt lat="45.41504" lon="22.200222">
        <ele>226.2</ele>
      </trkpt>
      <trkpt lat="45.41515" lon="22.201157">
        <ele>225.4</ele>
      </trkpt>
      <trkpt lat="45.415086" lon="22.201502">
        <ele>225.2</ele>
      </trkpt>
      <trkpt lat="45.414801" lon="22.202335">
        <ele>224.8</ele>
      </trkpt>
      <trkpt lat="45.414626" lon="22.202741">
        <ele>224.2</ele>
      </trkpt>
      <trkpt lat="45.414496" lon="22.202915">
        <ele>224.0</ele>
      </trkpt>
      <trkpt lat="45.414233" lon="22.202799">
        <ele>223.8</ele>
      </trkpt>
      <trkpt lat="45.41395" lon="22.202756">
        <ele>223.0</ele>
      </trkpt>
      <trkpt lat="45.413583" lon="22.202949">
        <ele>221.2</ele>
      </trkpt>
      <trkpt lat="45.413089" lon="22.20296">
        <ele>221.4</ele>
      </trkpt>
      <trkpt lat="45.412802" lon="22.203117">
        <ele>222.4</ele>
      </trkpt>
      <trkpt lat="45.412143" lon="22.203327">
        <ele>223.0</ele>
      </trkpt>
      <trkpt lat="45.409492" lon="22.203893">
        <ele>224.2</ele>
      </trkpt>
      <trkpt lat="45.409458" lon="22.20396">
        <ele>224.4</ele>
      </trkpt>
      <trkpt lat="45.409476" lon="22.204101">
        <ele>224.2</ele>
      </trkpt>
      <trkpt lat="45.409747" lon="22.204902">
        <ele>223.0</ele>
      </trkpt>
      <trkpt lat="45.409809" lon="22.205217">
        <ele>223.0</ele>
      </trkpt>
      <trkpt lat="45.409739" lon="22.205379">
        <ele>223.0</ele>
      </trkpt>
      <trkpt lat="45.409358" lon="22.205662">
        <ele>222.8</ele>
      </trkpt>
      <trkpt lat="45.409285" lon="22.205774">
        <ele>223.0</ele>
      </trkpt>
      <trkpt lat="45.409254" lon="22.206181">
        <ele>223.2</ele>
      </trkpt>
      <trkpt lat="45.409488" lon="22.206932">
        <ele>222.6</ele>
      </trkpt>
    </trkseg>
  </trk>
</gpx>